{"type": "FeatureCollection", "features": [{"id": "123", "type": "Feature", "properties": {"osm_id": "7091562", "name": "Colonia Toryvete", "code": 1211, "source": "OSM via Geofabrik", "admin_level": 11, "layer": "barrios_sub"}, "geometry": {"type": "Polygon", "coordinates": [[[-54.9504917, -25.346489], [-54.9391299, -25.3443074], [-54.9424583, -25.315301], [-54.926403, -25.3125845], [-54.8992242, -25.3302786], [-54.9197819, -25.3385612], [-54.9169828, -25.3490292], [-54.9266344, -25.3555039], [-54.950371, -25.3468831], [-54.9504917, -25.346489]]]}}, {"id": "124", "type": "Feature", "properties": {"osm_id": "7094102", "name": "Colonia Acaray", "code": 1211, "source": "OSM via Geofabrik", "admin_level": 11, "layer": "barrios_sub"}, "geometry": {"type": "Polygon", "coordinates": [[[-54.8106149, -25.4027496], [-54.7806606, -25.3896483], [-54.7527393, -25.3406085], [-54.7233126, -25.3716712], [-54.7284497, -25.37766], [-54.7153873, -25.3891203], [-54.7077311, -25.3834517], [-54.6976843, -25.3912269], [-54.7117798, -25.4181407], [-54.7239592, -25.4055921], [-54.7202939, -25.3945704], [-54.7266951, -25.3871501], [-54.7387714, -25.4060747], [-54.7194048, -25.4190749], [-54.7385247, -25.4124572], [-54.7475004, -25.4276843], [-54.754428, -25.4230672], [-54.7526578, -25.4046317], [-54.7638512, -25.4051599], [-54.7631431, -25.4238036], [-54.776803, -25.4214693], [-54.7822865, -25.4304371], [-54.7810291, -25.407385], [-54.796999, -25.4267367], [-54.7963681, -25.4143023], [-54.8104587, -25.404558], [-54.8106149, -25.4027496]]]}}, {"id": "125", "type": "Feature", "properties": {"osm_id": "7094306", "name": "Comunidad Ind\u00edgena Mbya Guaran\u00ed", "code": 1211, "source": "OSM via Geofabrik", "admin_level": 11, "layer": "barrios_sub"}, "geometry": {"type": "Polygon", "coordinates": [[[-54.6534142, -25.3013509], [-54.6470175, -25.301805], [-54.6534128, -25.301423], [-54.6534142, -25.3013509]]]}}, {"id": "127", "type": "Feature", "properties": {"osm_id": "7095170", "name": "Santa Elena", "code": 1211, "source": "OSM via Geofabrik", "admin_level": 11, "layer": "barrios_sub"}, "geometry": {"type": "Polygon", "coordinates": [[[-54.6397861, -25.3230365], [-54.6226562, -25.2888027], [-54.6279798, -25.3011024], [-54.6047272, -25.2916388], [-54.5912329, -25.2993268], [-54.5952098, -25.3097707], [-54.5891532, -25.3050286], [-54.5839021, -25.3122844], [-54.5812849, -25.3020171], [-54.5566953, -25.293213], [-54.5484198, -25.3115005], [-54.5599232, -25.3125805], [-54.5594752, -25.321686], [-54.569147, -25.3271926], [-54.5507455, -25.3444817], [-54.5586848, -25.3543521], [-54.5706958, -25.3364482], [-54.5810652, -25.3370833], [-54.5837152, -25.3483795], [-54.5981053, -25.3284844], [-54.5998299, -25.3363076], [-54.6075386, -25.3346252], [-54.6193462, -25.3193108], [-54.6195602, -25.3277062], [-54.6353744, -25.3271892], [-54.6397861, -25.3230365]]]}}, {"id": "129", "type": "Feature", "properties": {"osm_id": "7090490", "name": "Nueva Fortuna", "code": 1211, "source": "OSM via Geofabrik", "admin_level": 11, "layer": "barrios_sub"}, "geometry": {"type": "Polygon", "coordinates": [[[-55.0245845, -25.2296246], [-54.9819739, -25.2041813], [-54.9470965, -25.2269854], [-54.9161383, -25.212904], [-54.9013849, -25.231312], [-54.8967429, -25.2700012], [-54.9045955, -25.2779314], [-54.9092895, -25.2598539], [-54.934917, -25.2685215], [-54.938974, -25.2587974], [-54.9675253, -25.2695787], [-54.9653941, -25.2494316], [-54.9747684, -25.2480406], [-54.9703288, -25.2584946], [-54.9802637, -25.2637342], [-54.9915612, -25.2576311], [-54.9840939, -25.2468892], [-54.9950888, -25.2411797], [-54.9936833, -25.2491565], [-55.0035539, -25.251893], [-55.0023007, -25.2409987], [-55.0171602, -25.2441818], [-55.012536, -25.233759], [-55.0244021, -25.230731], [-55.0245845, -25.2296246]]]}}, {"id": "130", "type": "Feature", "properties": {"osm_id": "7080946", "name": "La Fortuna Unida", "code": 1211, "source": "OSM via Geofabrik", "admin_level": 11, "layer": "barrios_sub"}, "geometry": {"type": "Polygon", "coordinates": [[[-54.9036558, -25.1640892], [-54.877811, -25.1387307], [-54.877975, -25.1487931], [-54.8995855, -25.1671915], [-54.9036558, -25.1640892]]]}}, {"id": "132", "type": "Feature", "properties": {"osm_id": "7090298", "name": "Colonia La Fortuna", "code": 1211, "source": "OSM via Geofabrik", "admin_level": 11, "layer": "barrios_sub"}, "geometry": null}, {"id": "133", "type": "Feature", "properties": {"osm_id": "7090768", "name": "Maracamoa", "code": 1211, "source": "OSM via Geofabrik", "admin_level": 11, "layer": "barrios_sub"}, "geometry": {"type": "Polygon", "coordinates": [[[-54.8778892, -25.2537027], [-54.8442592, -25.2721985], [-54.8487806, -25.2766966], [-54.8778808, -25.2538289], [-54.8778892, -25.2537027]]]}}, {"id": "134", "type": "Feature", "properties": {"osm_id": "7091373", "name": "Comunidad Ind\u00edgena Independiente", "code": 1211, "source": "OSM via Geofabrik", "admin_level": 11, "layer": "barrios_sub"}, "geometry": {"type": "Polygon", "coordinates": [[[-54.9279508, -25.289538], [-54.9149146, -25.2781022], [-54.8823841, -25.2999722], [-54.8992242, -25.3302786], [-54.926403, -25.3125845], [-54.9279179, -25.2895736], [-54.9279508, -25.289538]]]}}, {"id": "135", "type": "Feature", "properties": {"osm_id": "7091335", "name": "Colonia Laura", "code": 1211, "source": "OSM via Geofabrik", "admin_level": 11, "layer": "barrios_sub"}, "geometry": {"type": "Polygon", "coordinates": [[[-54.9772274, -25.2785104], [-54.972614, -25.2687698], [-54.9657363, -25.2729034], [-54.938922, -25.2587922], [-54.934706, -25.2685185], [-54.9201969, -25.2584575], [-54.9092895, -25.2598539], [-54.9045955, -25.2779314], [-54.9183541, -25.2787555], [-54.9278839, -25.2892707], [-54.926403, -25.3125845], [-54.9576371, -25.3216258], [-54.9636775, -25.3067675], [-54.9549335, -25.30443], [-54.9771202, -25.2790052], [-54.9772274, -25.2785104]]]}}, {"id": "137", "type": "Feature", "properties": {"osm_id": "7097450", "name": "Santa Rosa", "code": 1211, "source": "OSM via Geofabrik", "admin_level": 11, "layer": "barrios_sub"}, "geometry": null}, {"id": "138", "type": "Feature", "properties": {"osm_id": "7094343", "name": "Orlando Cue", "code": 1211, "source": "OSM via Geofabrik", "admin_level": 11, "layer": "barrios_sub"}, "geometry": {"type": "Polygon", "coordinates": [[[-54.6831747, -25.3214395], [-54.6740676, -25.3132853], [-54.6677416, -25.3278725], [-54.6831048, -25.3215013], [-54.6831747, -25.3214395]]]}}, {"id": "154", "type": "Feature", "properties": {"osm_id": "7093711", "name": "Bella Vista", "code": 1211, "source": "OSM via Geofabrik", "admin_level": 11, "layer": "barrios_sub"}, "geometry": {"type": "Polygon", "coordinates": [[[-54.9119215, -25.3681485], [-54.8919835, -25.3515695], [-54.9086819, -25.3481207], [-54.8832914, -25.2999207], [-54.8612985, -25.2954646], [-54.8595136, -25.2808741], [-54.8444357, -25.2711464], [-54.8263113, -25.2803266], [-54.7235345, -25.2825365], [-54.7350134, -25.3166082], [-54.774377, -25.3037515], [-54.7906666, -25.3217139], [-54.8018322, -25.3626332], [-54.8261672, -25.3657369], [-54.8361465, -25.3498845], [-54.8783976, -25.358587], [-54.8831633, -25.3667151], [-54.8990152, -25.3627073], [-54.8985917, -25.377324], [-54.9117991, -25.3689144], [-54.9119215, -25.3681485]]]}}, {"id": "168", "type": "Feature", "properties": {"osm_id": "8366029", "name": "Central", "code": 1211, "source": "OSM via Geofabrik", "admin_level": 11, "layer": "barrios_sub"}, "geometry": {"type": "Polygon", "coordinates": [[[-58.1756284, -20.237916], [-58.1735964, -20.223546], [-58.1625854, -20.223444], [-58.1651464, -20.248774], [-58.1706174, -20.239854], [-58.1756284, -20.237916]]]}}, {"id": "169", "type": "Feature", "properties": {"osm_id": "8366028", "name": "Comunidad Indigena Puerto Diana", "code": 1211, "source": "OSM via Geofabrik", "admin_level": 11, "layer": "barrios_sub"}, "geometry": {"type": "Polygon", "coordinates": [[[-58.1697764, -20.248915], [-58.1615234, -20.261402], [-58.1682184, -20.260616], [-58.1697764, -20.248915]]]}}, {"id": "242", "type": "Feature", "properties": {"osm_id": "7093850", "name": "Santa M\u00f3nica", "code": 1211, "source": "OSM via Geofabrik", "admin_level": 11, "layer": "barrios_sub"}, "geometry": {"type": "Polygon", "coordinates": [[[-54.8261709, -25.3657641], [-54.8018322, -25.3626332], [-54.7906666, -25.3217139], [-54.774377, -25.3037515], [-54.7350134, -25.3166082], [-54.7340277, -25.3309906], [-54.7175139, -25.3371757], [-54.7406974, -25.3506252], [-54.7487986, -25.3403989], [-54.7581887, -25.3436788], [-54.7806606, -25.3896483], [-54.8055035, -25.401834], [-54.8153766, -25.393162], [-54.8083517, -25.3927144], [-54.8117212, -25.3804751], [-54.8261458, -25.3658134], [-54.8261709, -25.3657641]]]}}, {"id": "312", "type": "Feature", "properties": {"osm_id": "7097052", "name": "Tati Yupi", "code": 1211, "source": "OSM via Geofabrik", "admin_level": 11, "layer": "barrios_sub"}, "geometry": {"type": "Polygon", "coordinates": [[[-54.6453647, -25.3525257], [-54.6407897, -25.3452645], [-54.6316812, -25.354681], [-54.6171455, -25.342426], [-54.6248718, -25.3318936], [-54.6106499, -25.3410202], [-54.6233636, -25.3483262], [-54.6008438, -25.3464937], [-54.5923422, -25.3554516], [-54.5964021, -25.3607024], [-54.5771974, -25.361301], [-54.5953721, -25.3890518], [-54.5965308, -25.3797029], [-54.6050924, -25.3819178], [-54.6220346, -25.366272], [-54.6133965, -25.3767379], [-54.6313861, -25.3772226], [-54.6147108, -25.3891535], [-54.6313003, -25.3923666], [-54.6271897, -25.3996932], [-54.6437246, -25.3766261], [-54.6452727, -25.3549715], [-54.6453647, -25.3525257]], [[-54.6380568, -25.3799888], [-54.6291196, -25.3751663], [-54.6380568, -25.3797659], [-54.6380568, -25.3799888]]]}}, {"id": "450", "type": "Feature", "properties": {"osm_id": "7094967", "name": "San Roque", "code": 1211, "source": "OSM via Geofabrik", "admin_level": 11, "layer": "barrios_sub"}, "geometry": {"type": "Polygon", "coordinates": [[[-54.6926306, -25.3576029], [-54.6867569, -25.3520432], [-54.6453608, -25.354945], [-54.6453992, -25.3621132], [-54.6768337, -25.374313], [-54.6926051, -25.3738084], [-54.6869262, -25.3626802], [-54.6926306, -25.3576029]]]}}, {"id": "576", "type": "Feature", "properties": {"osm_id": "7097716", "name": "Itaipu", "code": 1211, "source": "OSM via Geofabrik", "admin_level": 11, "layer": "barrios_sub"}, "geometry": {"type": "Polygon", "coordinates": [[[-54.6388603, -25.4304649], [-54.6352959, -25.4131842], [-54.6284407, -25.4191836], [-54.6236466, -25.4146732], [-54.6199404, -25.4020031], [-54.6272584, -25.3991345], [-54.6147859, -25.3999458], [-54.6155959, -25.4130435], [-54.5889643, -25.4071877], [-54.6072221, -25.4424317], [-54.6219635, -25.4493296], [-54.6162798, -25.4740159], [-54.6244096, -25.4751121], [-54.631162, -25.4906789], [-54.6379508, -25.4747699], [-54.6274051, -25.4753436], [-54.625011, -25.464359], [-54.6387405, -25.4312861], [-54.6388603, -25.4304649]]]}}, {"id": "653", "type": "Feature", "properties": {"osm_id": "7090858", "name": "Comunidad Ind\u00edgena Acaraymi", "code": 1211, "source": "OSM via Geofabrik", "admin_level": 11, "layer": "barrios_sub"}, "geometry": {"type": "Polygon", "coordinates": [[[-54.9073108, -25.2871127], [-54.8772446, -25.252529], [-54.8487806, -25.2766966], [-54.8595136, -25.2808741], [-54.8612985, -25.2954646], [-54.877696, -25.3021693], [-54.8881867, -25.297108], [-54.9073108, -25.2871127]]]}}, {"id": "654", "type": "Feature", "properties": {"osm_id": "7090688", "name": "Acaray-m\u00ed", "code": 1211, "source": "OSM via Geofabrik", "admin_level": 11, "layer": "barrios_sub"}, "geometry": {"type": "Polygon", "coordinates": [[[-54.904966, -25.2333859], [-54.8843681, -25.214565], [-54.8744883, -25.2149828], [-54.870607, -25.2243284], [-54.8776366, -25.2523541], [-54.8967429, -25.2700012], [-54.9049246, -25.2337516], [-54.904966, -25.2333859]]]}}, {"id": "907", "type": "Feature", "properties": {"osm_id": "7094357", "name": "Santa Rosa Sub-Urbano", "code": 1211, "source": "OSM via Geofabrik", "admin_level": 11, "layer": "barrios_sub"}, "geometry": {"type": "Polygon", "coordinates": [[[-54.6677416, -25.3278725], [-54.6659897, -25.3214609], [-54.6581992, -25.3293027], [-54.6648196, -25.3314243], [-54.6677416, -25.3278725]]]}}, {"id": "908", "type": "Feature", "properties": {"osm_id": "7094579", "name": "Tacuru Pucu", "code": 1211, "source": "OSM via Geofabrik", "admin_level": 11, "layer": "barrios_sub"}, "geometry": {"type": "Polygon", "coordinates": [[[-54.6933724, -25.3307992], [-54.6831048, -25.3215013], [-54.6581992, -25.3293027], [-54.6740676, -25.3132853], [-54.6491457, -25.3042356], [-54.6419758, -25.2836601], [-54.6226562, -25.2888027], [-54.6397861, -25.3230365], [-54.6571831, -25.3358756], [-54.6453608, -25.354945], [-54.6867569, -25.3520432], [-54.6786472, -25.3443079], [-54.6913903, -25.3325933], [-54.6933724, -25.3307992]]]}}, {"id": "1019", "type": "Feature", "properties": {"osm_id": "7580354", "name": "Campo Loa", "code": 1211, "source": "OSM via Geofabrik", "admin_level": 11, "layer": "barrios_sub"}, "geometry": {"type": "Polygon", "coordinates": [[[-60.6643307, -22.4665083], [-60.6643206, -22.4274445], [-60.5793847, -22.4271684], [-60.5793891, -22.3886444], [-60.4964432, -22.388508], [-60.4951305, -22.4667622], [-60.6643307, -22.4665083]]]}}, {"id": "1206", "type": "Feature", "properties": {"osm_id": "7094262", "name": "Paso It\u00e1", "code": 1211, "source": "OSM via Geofabrik", "admin_level": 11, "layer": "barrios_sub"}, "geometry": {"type": "Polygon", "coordinates": [[[-54.7406974, -25.3506252], [-54.6913903, -25.3325933], [-54.6786472, -25.3443079], [-54.6926306, -25.3576029], [-54.6841245, -25.3651557], [-54.6951059, -25.39028], [-54.7077311, -25.3834517], [-54.7153873, -25.3891203], [-54.7284497, -25.37766], [-54.7233126, -25.3716712], [-54.7292903, -25.3650206], [-54.7406974, -25.3506252]]]}}, {"id": "1207", "type": "Feature", "properties": {"osm_id": "7093962", "name": "Manduara", "code": 1211, "source": "OSM via Geofabrik", "admin_level": 11, "layer": "barrios_sub"}, "geometry": {"type": "Polygon", "coordinates": [[[-54.7350134, -25.3166082], [-54.7264591, -25.2865554], [-54.7014442, -25.2460988], [-54.6894014, -25.2604447], [-54.6533546, -25.2502129], [-54.6333126, -25.2647137], [-54.6307025, -25.2792971], [-54.6416316, -25.2818242], [-54.6547793, -25.3033854], [-54.6926436, -25.333354], [-54.7176642, -25.3396131], [-54.7340277, -25.3309906], [-54.7349405, -25.3168019], [-54.7350134, -25.3166082]]]}}]}