{"type": "FeatureCollection", "features": [{"id": "117", "type": "Feature", "properties": {"osm_id": "6601485", "name": "Distrito de Ypacarai", "code": 1206, "source": "OSM via Geofabrik", "admin_level": 6, "layer": "distritos"}, "geometry": {"type": "Polygon", "coordinates": [[[-57.3313914, -25.3719763], [-57.3070843, -25.3382234], [-57.296262, -25.3534905], [-57.2690579, -25.3636734], [-57.2508375, -25.3591858], [-57.2332227, -25.3667959], [-57.205563, -25.3527087], [-57.1949321, -25.3697911], [-57.1964689, -25.3909499], [-57.1815102, -25.4101983], [-57.2179097, -25.4026798], [-57.2230103, -25.4186246], [-57.2385842, -25.4293916], [-57.2909895, -25.4513632], [-57.2997189, -25.4496146], [-57.3000972, -25.4176878], [-57.3158884, -25.4053421], [-57.3112993, -25.3887583], [-57.3313406, -25.3720216], [-57.3313914, -25.3719763]]]}}, {"id": "729", "type": "Feature", "properties": {"osm_id": "14708952", "name": "Distrito de Yaguar\u00f3n", "code": 1206, "source": "OSM via Geofabrik", "admin_level": 6, "layer": "distritos"}, "geometry": {"type": "Polygon", "coordinates": [[[-57.3882907, -25.6392253], [-57.3430321, -25.6096114], [-57.3435469, -25.587179], [-57.3307358, -25.5789007], [-57.3170959, -25.4976607], [-57.2539073, -25.5092775], [-57.230789, -25.5267703], [-57.2188181, -25.5593152], [-57.1840189, -25.5914488], [-57.184518, -25.606162], [-57.2100319, -25.6142398], [-57.2245303, -25.6570155], [-57.2699331, -25.6768048], [-57.2814838, -25.6659268], [-57.3020908, -25.6760736], [-57.3179568, -25.6651089], [-57.3434431, -25.6687271], [-57.3711643, -25.6571905], [-57.388227, -25.6392811], [-57.3882907, -25.6392253]]]}}, {"id": "730", "type": "Feature", "properties": {"osm_id": "14706509", "name": "Distrito de Piray\u00fa", "code": 1206, "source": "OSM via Geofabrik", "admin_level": 6, "layer": "distritos"}, "geometry": {"type": "Polygon", "coordinates": [[[-57.3193955, -25.4550439], [-57.3186967, -25.4472213], [-57.2909895, -25.4513632], [-57.2385842, -25.4293916], [-57.2230103, -25.4186246], [-57.2179097, -25.4026798], [-57.1809001, -25.4098848], [-57.1633958, -25.4341901], [-57.1307207, -25.4528803], [-57.1311071, -25.4735674], [-57.1420064, -25.4832941], [-57.1309227, -25.497619], [-57.1267509, -25.526175], [-57.1851386, -25.5305113], [-57.1959249, -25.5442792], [-57.2180583, -25.5511081], [-57.230789, -25.5267703], [-57.2539073, -25.5092775], [-57.3170959, -25.4976607], [-57.3120273, -25.4612216], [-57.3188505, -25.4557104], [-57.3193955, -25.4550439]]]}}, {"id": "748", "type": "Feature", "properties": {"osm_id": "14708964", "name": "Distrito de Carapegu\u00e1", "code": 1206, "source": "OSM via Geofabrik", "admin_level": 6, "layer": "distritos"}, "geometry": {"type": "Polygon", "coordinates": [[[-57.4682093, -25.7561491], [-57.4579845, -25.7322188], [-57.4268582, -25.7009039], [-57.4361879, -25.7015579], [-57.416626, -25.6945158], [-57.4215126, -25.6470522], [-57.406822, -25.6287384], [-57.3966376, -25.6286025], [-57.3712565, -25.6571442], [-57.3434431, -25.6687271], [-57.3179568, -25.6651089], [-57.3019951, -25.676081], [-57.2779329, -25.6677014], [-57.2558023, -25.6986358], [-57.2400741, -25.6955904], [-57.2352818, -25.7345165], [-57.2187506, -25.7456007], [-57.2150049, -25.7630758], [-57.1884099, -25.7774424], [-57.1583534, -25.7735566], [-57.1403169, -25.7873092], [-57.1372251, -25.8013338], [-57.1492996, -25.8316376], [-57.1742209, -25.8479678], [-57.1879984, -25.8449197], [-57.194805, -25.8538208], [-57.2057534, -25.8510459], [-57.2249684, -25.8117012], [-57.2597495, -25.8084296], [-57.2706538, -25.8142825], [-57.3267028, -25.8124267], [-57.3386692, -25.828292], [-57.3567152, -25.8282275], [-57.3837524, -25.8580165], [-57.3994363, -25.8535739], [-57.4193184, -25.8644184], [-57.4525509, -25.8295616], [-57.4632523, -25.7792563], [-57.45738, -25.7720589], [-57.4655682, -25.7600062], [-57.4682093, -25.7561491]]]}}, {"id": "794", "type": "Feature", "properties": {"osm_id": "16221141", "name": "San Juan Bautista", "code": 1206, "source": "OSM via Geofabrik", "admin_level": 6, "layer": "distritos"}, "geometry": {"type": "Polygon", "coordinates": [[[-57.7426703, -26.4013437], [-57.7152403, -26.3886424], [-57.715412, -26.4009437], [-57.7031227, -26.4069856], [-57.7073439, -26.42462], [-57.697223, -26.4272404], [-57.6901778, -26.4181633], [-57.682968, -26.4329209], [-57.6635702, -26.4316912], [-57.6682966, -26.4389773], [-57.6607816, -26.4473459], [-57.6767324, -26.4589186], [-57.6751918, -26.4681103], [-57.6550409, -26.4677174], [-57.6635702, -26.4793336], [-57.6588246, -26.4887295], [-57.649494, -26.4774897], [-57.6407803, -26.4783338], [-57.64084, -26.5005008], [-57.6341549, -26.4917245], [-57.6198756, -26.4911733], [-57.5978239, -26.531871], [-57.575508, -26.5335604], [-57.5620501, -26.5216747], [-57.5471177, -26.5246583], [-57.5443003, -26.5427175], [-57.5082167, -26.5384749], [-57.5204993, -26.5512917], [-57.4988444, -26.5538472], [-57.5061568, -26.5678038], [-57.48949, -26.5582016], [-57.4710555, -26.5603958], [-57.4712428, -26.5762775], [-57.4481407, -26.5712209], [-57.4524165, -26.578024], [-57.4461188, -26.5845379], [-57.4279818, -26.591927], [-57.4358586, -26.6133728], [-57.4146292, -26.606255], [-57.4108101, -26.6196726], [-57.381297, -26.6050206], [-57.3734625, -26.6181522], [-57.375466, -26.6077183], [-57.3668292, -26.6143246], [-57.3600447, -26.5937621], [-57.3526915, -26.6117063], [-57.346855, -26.6126272], [-57.3468703, -26.604628], [-57.3319189, -26.6096041], [-57.3213155, -26.6016261], [-57.3197325, -26.5839238], [-57.2948524, -26.5942885], [-57.2953993, -26.582263], [-57.2825344, -26.5975272], [-57.2823511, -26.5872176], [-57.2641022, -26.5864561], [-57.2759002, -26.5833213], [-57.2666045, -26.5698009], [-57.2531736, -26.5655282], [-57.2305077, -26.5718534], [-57.2228345, -26.5657318], [-57.2182885, -26.571362], [-57.2070125, -26.5638387], [-57.2105713, -26.553767], [-57.194597, -26.5515169], [-57.181478, -26.5323853], [-57.1088899, -26.5064764], [-57.1201758, -26.5157565], [-57.1172703, -26.5345321], [-57.1095107, -26.5607036], [-57.0863095, -26.5874657], [-57.0855023, -26.6578322], [-57.0626531, -26.7052912], [-57.0010301, -26.7100433], [-57.0461347, -26.7608074], [-57.0792919, -26.7768157], [-57.1014697, -26.7987146], [-57.1371517, -26.8057806], [-57.1726803, -26.794835], [-57.2045107, -26.8123109], [-57.2344102, -26.8147714], [-57.2552166, -26.8073134], [-57.270127, -26.7797789], [-57.3697998, -26.9090096], [-57.4308278, -27.0573687], [-57.6400956, -26.7904388], [-57.7426703, -26.4013437]]]}}, {"id": "874", "type": "Feature", "properties": {"osm_id": "14699518", "name": "Distrito de sap\u00facai", "code": 1206, "source": "OSM via Geofabrik", "admin_level": 6, "layer": "distritos"}, "geometry": {"type": "Polygon", "coordinates": [[[-57.0770018, -25.818427], [-57.0572767, -25.8097222], [-57.0437532, -25.7901663], [-57.0216422, -25.7862322], [-57.0167251, -25.7766212], [-57.0035505, -25.7854403], [-56.9764707, -25.7750602], [-56.9773265, -25.7554854], [-56.9703402, -25.7526421], [-56.9834512, -25.7503109], [-56.9683617, -25.7435819], [-56.9657707, -25.7311099], [-56.9818075, -25.6943186], [-57.0074242, -25.6693675], [-57.0114761, -25.6554747], [-57.0033758, -25.6521182], [-56.9990946, -25.6116317], [-56.9856762, -25.5867017], [-56.9901657, -25.5798721], [-56.9703595, -25.5716215], [-56.9610496, -25.5871597], [-56.9570224, -25.5821335], [-56.9413422, -25.5954457], [-56.9110716, -25.5951277], [-56.9103124, -25.603243], [-56.9210382, -25.606498], [-56.9492034, -25.6497247], [-56.8907052, -25.6669873], [-56.891541, -25.6804078], [-56.9120975, -25.7010123], [-56.9224991, -25.7305264], [-56.9196812, -25.7442595], [-56.9595476, -25.7565247], [-56.9480683, -25.7820167], [-56.9671563, -25.8011928], [-56.9635031, -25.8230481], [-56.9998183, -25.8483745], [-57.0202169, -25.8527453], [-57.069314, -25.8350623], [-57.076955, -25.8185294], [-57.0770018, -25.818427]]]}}, {"id": "911", "type": "Feature", "properties": {"osm_id": "14697146", "name": "Distrito de Escobar", "code": 1206, "source": "OSM via Geofabrik", "admin_level": 6, "layer": "distritos"}, "geometry": {"type": "Polygon", "coordinates": [[[-57.1114553, -25.6912257], [-57.0867004, -25.6871812], [-57.0741316, -25.6659665], [-57.0761356, -25.6506117], [-57.0949746, -25.6343277], [-57.0803608, -25.5822835], [-57.0624266, -25.5783794], [-57.0381846, -25.5912778], [-57.019966, -25.5911169], [-56.999425, -25.5746648], [-56.9567966, -25.5622554], [-56.9342693, -25.5692542], [-56.9056233, -25.5655182], [-56.9209783, -25.5753948], [-56.9145336, -25.5917219], [-56.9311597, -25.5966051], [-56.9570224, -25.5821335], [-56.9610496, -25.5871597], [-56.9703595, -25.5716215], [-56.9901657, -25.5798721], [-56.9856762, -25.5867017], [-56.9990946, -25.6116317], [-57.0033758, -25.6521182], [-57.0114761, -25.6554747], [-57.0074242, -25.6693675], [-56.9818075, -25.6943186], [-56.9657707, -25.7311099], [-56.9683617, -25.7435819], [-56.9834512, -25.7503109], [-56.9703402, -25.7526421], [-56.9773265, -25.7554854], [-56.9764707, -25.7750602], [-57.003686, -25.7853877], [-57.0225806, -25.7680911], [-57.02145, -25.7579181], [-57.0457722, -25.7523763], [-57.0595159, -25.7306973], [-57.1051897, -25.7024757], [-57.1113305, -25.6913828], [-57.1114553, -25.6912257]]]}}, {"id": "912", "type": "Feature", "properties": {"osm_id": "14699517", "name": "Distrito de paraguar\u00ed", "code": 1206, "source": "OSM via Geofabrik", "admin_level": 6, "layer": "distritos"}, "geometry": {"type": "Polygon", "coordinates": [[[-57.2705411, -25.6769425], [-57.2245303, -25.6570155], [-57.2100319, -25.6142398], [-57.184518, -25.606162], [-57.1876709, -25.5858638], [-57.222494, -25.5524801], [-57.1959249, -25.5442792], [-57.1851386, -25.5305113], [-57.1304482, -25.5274692], [-57.0878036, -25.5660728], [-57.083149, -25.5850072], [-57.0949746, -25.6343277], [-57.0761356, -25.6506117], [-57.0741316, -25.6659665], [-57.0867004, -25.6871812], [-57.1114553, -25.6912257], [-57.1051897, -25.7024757], [-57.0595159, -25.7306973], [-57.0457722, -25.7523763], [-57.02145, -25.7579181], [-57.0164598, -25.7765499], [-57.0218322, -25.7863297], [-57.0437532, -25.7901663], [-57.0573309, -25.8097671], [-57.0775404, -25.8188625], [-57.0932674, -25.8041213], [-57.126193, -25.7990008], [-57.1583534, -25.7735566], [-57.1839267, -25.7781473], [-57.205684, -25.7702314], [-57.216566, -25.7616905], [-57.2187506, -25.7456007], [-57.2352818, -25.7345165], [-57.2400741, -25.6955904], [-57.2558023, -25.6986358], [-57.2704002, -25.6771088], [-57.2705411, -25.6769425]]]}}, {"id": "1176", "type": "Feature", "properties": {"osm_id": "6601480", "name": "Distrito de It\u00e1", "code": 1206, "source": "OSM via Geofabrik", "admin_level": 6, "layer": "distritos"}, "geometry": {"type": "Polygon", "coordinates": [[[-57.4313371, -25.5214275], [-57.422155, -25.4671203], [-57.4284426, -25.4591706], [-57.4014454, -25.444545], [-57.3120273, -25.4612216], [-57.3307358, -25.5789007], [-57.3431247, -25.5860016], [-57.3432758, -25.6100488], [-57.3712009, -25.6244379], [-57.3777994, -25.6356862], [-57.391964, -25.639999], [-57.3947346, -25.615649], [-57.4153863, -25.5975445], [-57.4271015, -25.5630063], [-57.419871, -25.5366769], [-57.4312859, -25.5217212], [-57.4313371, -25.5214275]]]}}, {"id": "1177", "type": "Feature", "properties": {"osm_id": "3710875", "name": "Distrito de Itaugu\u00e1", "code": 1206, "source": "OSM via Geofabrik", "admin_level": 6, "layer": "distritos"}, "geometry": {"type": "Polygon", "coordinates": [[[-57.4058927, -25.3872905], [-57.4024062, -25.3577568], [-57.3901168, -25.3475448], [-57.3730817, -25.3532646], [-57.3680491, -25.338273], [-57.330894, -25.3096426], [-57.3070843, -25.3382234], [-57.3313914, -25.3719763], [-57.3112993, -25.3887583], [-57.3158884, -25.4053421], [-57.3000972, -25.4176878], [-57.2997189, -25.4496146], [-57.3186967, -25.4472213], [-57.3130996, -25.4608138], [-57.4014454, -25.444545], [-57.3987946, -25.4057863], [-57.4058858, -25.3874711], [-57.4058927, -25.3872905]]]}}]}