{"type": "FeatureCollection", "features": [{"id": "108", "type": "Feature", "properties": {"osm_id": "2263975", "name": "General Higinio Mor\u00ednigo", "code": 1207, "source": "OSM via Geofabrik", "admin_level": 7, "layer": "distritos_sub"}, "geometry": {"type": "Polygon", "coordinates": [[[-56.2274863, -26.1349666], [-56.2080975, -26.1174802], [-56.2062337, -26.0958856], [-56.1844262, -26.0794663], [-56.1804442, -26.0634124], [-56.1351686, -26.0286839], [-56.1211662, -26.0305588], [-56.1090855, -26.0155596], [-56.0993523, -26.0191832], [-56.0484533, -25.8908599], [-56.0271601, -25.8924568], [-56.0092096, -25.9224691], [-55.9938858, -25.9293067], [-55.9916846, -25.9472561], [-55.9991784, -25.9483507], [-55.999169, -25.9561156], [-55.9887274, -25.9650405], [-55.9990645, -25.9676495], [-55.9994268, -25.9845138], [-55.9907862, -25.9910133], [-55.9925344, -26.0275387], [-55.9817694, -26.057191], [-55.9950334, -26.0822534], [-56.0172383, -26.0895166], [-56.0330843, -26.083186], [-56.0426914, -26.092875], [-56.0588302, -26.0930308], [-56.0877222, -26.1100872], [-56.1033681, -26.1298686], [-56.1279883, -26.1260514], [-56.1409135, -26.1413746], [-56.1647367, -26.1504004], [-56.1986579, -26.1557474], [-56.2273936, -26.135097], [-56.2274863, -26.1349666]]]}}, {"id": "109", "type": "Feature", "properties": {"osm_id": "2263941", "name": "Doctor Mois\u00e9s Bertoni", "code": 1207, "source": "OSM via Geofabrik", "admin_level": 7, "layer": "distritos_sub"}, "geometry": {"type": "Polygon", "coordinates": [[[-56.8062933, -26.4894742], [-56.785179, -26.4567443], [-56.7954787, -26.4404527], [-56.7903288, -26.4313837], [-56.7800291, -26.4309226], [-56.7796858, -26.4389156], [-56.7774542, -26.4293854], [-56.7609747, -26.4215454], [-56.7601164, -26.371726], [-56.7553179, -26.3660095], [-56.7384529, -26.3711329], [-56.7339661, -26.3581501], [-56.7441569, -26.3530469], [-56.7326927, -26.350256], [-56.7364051, -26.3342436], [-56.7226479, -26.3274849], [-56.718633, -26.3194366], [-56.7253147, -26.3125595], [-56.7183294, -26.3038801], [-56.7115878, -26.3083597], [-56.6997489, -26.3014825], [-56.6961696, -26.2874118], [-56.6475167, -26.2830294], [-56.5904525, -26.2960373], [-56.5526952, -26.2815634], [-56.5290204, -26.2821784], [-56.512015, -26.2642165], [-56.4608523, -26.2743172], [-56.3983254, -26.312839], [-56.3886014, -26.336], [-56.389468, -26.35752], [-56.376161, -26.3766089], [-56.4012132, -26.3764139], [-56.4207058, -26.365372], [-56.4226963, -26.3889083], [-56.4341691, -26.3925203], [-56.4415634, -26.4135617], [-56.5460144, -26.4793769], [-56.8055764, -26.489853], [-56.8062933, -26.4894742]]]}}, {"id": "110", "type": "Feature", "properties": {"osm_id": "2263942", "name": "Maciel", "code": 1207, "source": "OSM via Geofabrik", "admin_level": 7, "layer": "distritos_sub"}, "geometry": {"type": "Polygon", "coordinates": [[[-56.6999529, -26.2799721], [-56.6938853, -26.2785125], [-56.6996721, -26.2604747], [-56.6825264, -26.252304], [-56.6873381, -26.2400295], [-56.6757505, -26.2391346], [-56.6739287, -26.2264716], [-56.6595765, -26.2270321], [-56.6562599, -26.2190977], [-56.6510337, -26.2250498], [-56.6507675, -26.2161019], [-56.6378692, -26.2260486], [-56.6379743, -26.2097282], [-56.6220057, -26.1779314], [-56.60325, -26.1729479], [-56.5854279, -26.1885096], [-56.5512353, -26.1867185], [-56.5542861, -26.1762739], [-56.5387147, -26.1493782], [-56.5467194, -26.1288841], [-56.5384219, -26.1211104], [-56.4394634, -26.1179063], [-56.4032487, -26.1491188], [-56.3964274, -26.1665433], [-56.4007903, -26.2083557], [-56.3909982, -26.2338675], [-56.3723979, -26.2476563], [-56.3677939, -26.2705297], [-56.3874044, -26.3195466], [-56.4608523, -26.2743172], [-56.512015, -26.2642165], [-56.5290204, -26.2821784], [-56.5526952, -26.2815634], [-56.5904525, -26.2960373], [-56.6475167, -26.2830294], [-56.693758, -26.2876335], [-56.6991241, -26.2814771], [-56.6999529, -26.2799721]]]}}, {"id": "111", "type": "Feature", "properties": {"osm_id": "2263837", "name": "Buena Vista", "code": 1207, "source": "OSM via Geofabrik", "admin_level": 7, "layer": "distritos_sub"}, "geometry": {"type": "Polygon", "coordinates": [[[-56.1520638, -26.2135285], [-56.1429036, -26.1898679], [-56.1187128, -26.181853], [-56.1139683, -26.1621678], [-56.0355567, -26.1557522], [-56.0216165, -26.1621861], [-56.0267864, -26.1786973], [-56.0561129, -26.1979963], [-56.0601584, -26.2093817], [-56.0150726, -26.2308664], [-56.0406852, -26.2854711], [-56.0497933, -26.2817787], [-56.0719786, -26.2922573], [-56.097854, -26.2858583], [-56.1171869, -26.2540435], [-56.1345948, -26.242633], [-56.1382645, -26.249083], [-56.1482874, -26.2461955], [-56.1520202, -26.2136817], [-56.1520638, -26.2135285]]]}}, {"id": "112", "type": "Feature", "properties": {"osm_id": "2263836", "name": "San Juan Nepomuceno", "code": 1207, "source": "OSM via Geofabrik", "admin_level": 7, "layer": "distritos_sub"}, "geometry": {"type": "Polygon", "coordinates": [[[-56.1139683, -26.1621678], [-56.1057431, -26.1493183], [-56.1074372, -26.1326703], [-56.0769403, -26.1021769], [-56.0425201, -26.0928061], [-56.0330843, -26.083186], [-56.0172383, -26.0895166], [-55.9879839, -26.0837977], [-55.968379, -26.0705399], [-55.9071188, -26.10996], [-55.8901805, -26.109641], [-55.8417788, -26.076331], [-55.8144577, -26.089171], [-55.7988807, -26.1211068], [-55.7868273, -26.1121625], [-55.7638737, -26.1131412], [-55.7269306, -26.1757064], [-55.7020043, -26.185614], [-55.7077527, -26.1969911], [-55.698016, -26.20627], [-55.7225166, -26.2223839], [-55.7191512, -26.2357202], [-55.729045, -26.2457824], [-55.7228706, -26.2664839], [-55.732666, -26.2899568], [-55.7422004, -26.3004828], [-55.7614568, -26.304476], [-55.7588087, -26.3469775], [-55.7857971, -26.3453575], [-55.8057662, -26.360671], [-55.7999367, -26.3856729], [-55.8060505, -26.3972529], [-55.8207416, -26.4014194], [-55.8215366, -26.4269666], [-55.8321025, -26.4252206], [-55.8347951, -26.4413895], [-55.8460326, -26.4484143], [-55.8534358, -26.4416757], [-55.8498356, -26.416783], [-55.8710972, -26.3945373], [-55.8854531, -26.3571801], [-55.9610453, -26.3763787], [-55.9695227, -26.3447137], [-55.9860106, -26.343019], [-56.0194845, -26.359456], [-56.0259557, -26.3496454], [-56.0530895, -26.3586373], [-56.1040823, -26.3374871], [-56.071086, -26.2951239], [-56.0859403, -26.2899605], [-56.0406852, -26.2854711], [-56.0150726, -26.2308664], [-56.0601586, -26.2094359], [-56.0561129, -26.1979963], [-56.0267864, -26.1786973], [-56.0216165, -26.1621861], [-56.0355567, -26.1557522], [-56.1020374, -26.1598663], [-56.1139683, -26.1621678]]]}}, {"id": "113", "type": "Feature", "properties": {"osm_id": "5183572", "name": "Caazap\u00e1", "code": 1207, "source": "OSM via Geofabrik", "admin_level": 7, "layer": "distritos_sub"}, "geometry": {"type": "Polygon", "coordinates": [[[-56.410984, -26.1421224], [-56.4024429, -26.1371327], [-56.4109056, -26.023869], [-56.3761279, -26.0151077], [-56.3523077, -26.0263304], [-56.3399167, -26.0044727], [-56.3233471, -26.0021974], [-56.2809615, -25.9761868], [-56.1790576, -26.0659417], [-56.1947668, -26.0914564], [-56.2062337, -26.0958856], [-56.2080975, -26.1174802], [-56.2259624, -26.1400373], [-56.2152005, -26.1380784], [-56.1986579, -26.1557474], [-56.1409135, -26.1413746], [-56.1279883, -26.1260514], [-56.104643, -26.130335], [-56.1187128, -26.181853], [-56.1263757, -26.1792497], [-56.1490472, -26.1999265], [-56.1477102, -26.2567045], [-56.1636943, -26.2678562], [-56.1815317, -26.2619005], [-56.206311, -26.2722424], [-56.2194892, -26.2863728], [-56.2175559, -26.2953596], [-56.2467007, -26.3032896], [-56.2442163, -26.3189283], [-56.2513954, -26.3228394], [-56.2623156, -26.3703703], [-56.2789898, -26.3813494], [-56.3064595, -26.3723975], [-56.330581, -26.3864689], [-56.3557717, -26.3879058], [-56.3688059, -26.4066162], [-56.3661801, -26.3875597], [-56.389468, -26.35752], [-56.3886014, -26.336], [-56.3981893, -26.3203569], [-56.3827497, -26.31719], [-56.3691464, -26.2603733], [-56.3989057, -26.2143795], [-56.4023095, -26.1777326], [-56.3964274, -26.1665433], [-56.4109582, -26.1424113], [-56.410984, -26.1421224]]]}}, {"id": "343", "type": "Feature", "properties": {"osm_id": "2263961", "name": "Tava\u00ed", "code": 1207, "source": "OSM via Geofabrik", "admin_level": 7, "layer": "distritos_sub"}, "geometry": {"type": "Polygon", "coordinates": [[[-55.8065558, -26.374839], [-55.8057662, -26.360671], [-55.7872543, -26.3458062], [-55.7588087, -26.3469775], [-55.7614568, -26.304476], [-55.7422004, -26.3004828], [-55.732666, -26.2899568], [-55.7228706, -26.2664839], [-55.729045, -26.2457824], [-55.7191512, -26.2357202], [-55.7225166, -26.2223839], [-55.698016, -26.20627], [-55.7077527, -26.1969911], [-55.7020043, -26.185614], [-55.7124094, -26.1762679], [-55.7042882, -26.1641378], [-55.7088461, -26.1550377], [-55.6989608, -26.145144], [-55.6715048, -26.143801], [-55.6581419, -26.1082822], [-55.6473075, -26.0989677], [-55.6503399, -26.0583059], [-55.5975392, -26.0151944], [-55.5763811, -26.014491], [-55.5450136, -25.9950662], [-55.5254063, -25.9982538], [-55.5165229, -25.9865611], [-55.4650084, -25.9980127], [-55.460352, -25.9890445], [-55.457834, -26.0032802], [-55.4372368, -25.9995651], [-55.4316063, -26.0097174], [-55.4266335, -25.9972879], [-55.4082475, -25.9993241], [-55.4062895, -26.0181699], [-55.3925104, -26.035305], [-55.3762133, -26.01759], [-55.3845421, -26.0143904], [-55.3751866, -26.0092078], [-55.3839788, -26.008581], [-55.381744, -25.9998433], [-55.3648708, -26.0057992], [-55.3629664, -25.9958718], [-55.3473188, -25.9897481], [-55.3401742, -26.0069886], [-55.3248633, -26.0127561], [-55.3301366, -26.0200355], [-55.3221168, -26.0197608], [-55.3052399, -26.0423435], [-55.2943716, -26.0387383], [-55.2830741, -26.0526188], [-55.2739009, -26.0404445], [-55.2556941, -26.0382177], [-55.2507099, -26.0785212], [-55.2681602, -26.0776079], [-55.2815299, -26.0961607], [-55.2897408, -26.0950622], [-55.2883914, -26.0835861], [-55.2994025, -26.0879185], [-55.2975857, -26.1036542], [-55.3144577, -26.0921621], [-55.3179316, -26.1061499], [-55.3224013, -26.1000904], [-55.3418588, -26.1049691], [-55.3484246, -26.1853971], [-55.3681538, -26.2117113], [-55.3675978, -26.2227274], [-55.3567051, -26.2314635], [-55.3598136, -26.2690209], [-55.3694931, -26.2921222], [-55.3899992, -26.3020369], [-55.391636, -26.3100467], [-55.4551241, -26.3250362], [-55.4823752, -26.3102191], [-55.507194, -26.3079129], [-55.5131373, -26.3138664], [-55.4982356, -26.350111], [-55.5066171, -26.3567784], [-55.5310961, -26.3525517], [-55.545852, -26.3661863], [-55.5629652, -26.3672252], [-55.567476, -26.3900206], [-55.5958992, -26.4173905], [-55.6501177, -26.3736492], [-55.663149, -26.3790166], [-55.6677179, -26.3653771], [-55.6814777, -26.3584461], [-55.7177787, -26.3620222], [-55.7198193, -26.3721285], [-55.7307016, -26.3690492], [-55.753819, -26.3863634], [-55.7620405, -26.3798291], [-55.7662323, -26.3938261], [-55.8022468, -26.3895989], [-55.806456, -26.37498], [-55.8065558, -26.374839]]]}}, {"id": "346", "type": "Feature", "properties": {"osm_id": "6613489", "name": "Corpus Christi", "code": 1207, "source": "OSM via Geofabrik", "admin_level": 7, "layer": "distritos_sub"}, "geometry": {"type": "Polygon", "coordinates": [[[-55.334034, -24.1711402], [-55.3190586, -24.1578153], [-55.3150491, -24.1415315], [-55.3151992, -24.1100789], [-55.3245529, -24.0876665], [-55.2214687, -24.0600958], [-55.2312169, -24.0527506], [-55.2384662, -24.0223174], [-55.2068694, -24.003491], [-55.1980674, -23.9866278], [-55.1786955, -23.9936882], [-55.1560611, -23.9833707], [-55.1383367, -23.9869678], [-55.1075506, -23.9624945], [-55.0902504, -23.9826502], [-55.0736743, -23.9834638], [-55.0623715, -23.9931974], [-55.0513074, -23.9807632], [-55.0455802, -23.9838865], [-54.9985082, -23.9573658], [-54.9411386, -23.9668473], [-54.92577, -23.9601349], [-54.9269889, -23.9245357], [-54.9138449, -23.9219028], [-54.9088295, -23.9110868], [-54.8940784, -23.9104338], [-54.8852212, -23.8967678], [-54.8736877, -23.9086707], [-54.8503951, -23.9075686], [-54.8501697, -23.8969572], [-54.8320454, -23.8843819], [-54.8223301, -23.8890594], [-54.8157628, -24.1785988], [-54.8215709, -24.1784596], [-54.8224991, -24.3183466], [-54.8294272, -24.3225257], [-54.834105, -24.3049218], [-54.846352, -24.30302], [-54.8789781, -24.3475122], [-54.8981505, -24.3555809], [-54.9085736, -24.3422973], [-54.9248814, -24.3470918], [-54.9411635, -24.3275564], [-54.9762107, -24.3079854], [-54.9969904, -24.2698051], [-55.0008562, -24.1783401], [-55.0324827, -24.1653578], [-55.0386714, -24.1446215], [-55.0519517, -24.1371722], [-55.12034, -24.1361982], [-55.1270576, -24.1203828], [-55.1446145, -24.1121288], [-55.1597964, -24.1369289], [-55.1704158, -24.1312039], [-55.1785665, -24.1474623], [-55.1612691, -24.1900883], [-55.1758789, -24.2200031], [-55.1721858, -24.2297919], [-55.2064834, -24.2400117], [-55.2095582, -24.2521801], [-55.2291938, -24.2398534], [-55.2583993, -24.1977034], [-55.3095772, -24.1720764], [-55.3331315, -24.1715276], [-55.334034, -24.1711402]]]}}, {"id": "454", "type": "Feature", "properties": {"osm_id": "3149443", "name": "Municipio de San Antonio", "code": 1207, "source": "OSM via Geofabrik", "admin_level": 7, "layer": "distritos_sub"}, "geometry": {"type": "MultiPolygon", "coordinates": [[[[-57.0318, -27.4807817], [-56.9906758, -27.4660713], [-56.94466, -27.4305945], [-56.9001518, -27.4224676], [-56.8726827, -27.4303707], [-56.8305427, -27.4671599], [-56.7699698, -27.5020727], [-56.7284536, -27.5019022], [-56.7374942, -27.5481999], [-56.7489794, -27.5614654], [-56.7987759, -27.5734335], [-56.8384069, -27.5959538], [-56.8733347, -27.5814717], [-56.9022971, -27.5415624], [-56.8913966, -27.5405731], [-56.9522238, -27.5146421], [-56.9703502, -27.4916887], [-57.0317714, -27.4808765], [-57.0318, -27.4807817]]], [[[-56.989257, -27.4586849], [-56.9704199, -27.4469079], [-56.9891658, -27.4587301], [-56.989257, -27.4586849]]], [[[-56.9724767, -27.4430371], [-56.9724007, -27.4430529], [-56.9724767, -27.4430371]]], [[[-56.957489, -27.5157894], [-56.9571108, -27.5164167], [-56.957489, -27.5157894]]], [[[-56.9544795, -27.515596], [-56.9390971, -27.5241475], [-56.9520518, -27.5184244], [-56.9544795, -27.515596]]], [[[-56.9494474, -27.5228464], [-56.8951705, -27.5509502], [-56.8763012, -27.5816096], [-56.9191253, -27.5624224], [-56.9323379, -27.5344798], [-56.9494293, -27.5229264], [-56.9494474, -27.5228464]]], [[[-56.947829, -27.5227572], [-56.9410577, -27.5252928], [-56.9478008, -27.5228238], [-56.947829, -27.5227572]]], [[[-56.9467856, -27.5326918], [-56.9349195, -27.5411207], [-56.946739, -27.532773], [-56.9467856, -27.5326918]]], [[[-56.9462445, -27.5314508], [-56.9458938, -27.5317404], [-56.9462445, -27.5314508]]], [[[-56.9447284, -27.5358403], [-56.929948, -27.550468], [-56.9307884, -27.5572971], [-56.9367005, -27.5520273], [-56.9446952, -27.5359455], [-56.9447284, -27.5358403]]], [[[-56.9340645, -27.5275436], [-56.9338486, -27.5276329], [-56.9340645, -27.5275436]]], [[[-56.9309726, -27.5300915], [-56.9157243, -27.5358426], [-56.93097, -27.5301248], [-56.9309726, -27.5300915]]], [[[-56.9210857, -27.56308], [-56.8990747, -27.5731354], [-56.921082, -27.56313], [-56.9210857, -27.56308]]], [[[-56.9198046, -27.5310281], [-56.9084702, -27.5357308], [-56.9197858, -27.531075], [-56.9198046, -27.5310281]]], [[[-56.9077494, -27.5366257], [-56.9076528, -27.5368669], [-56.9077494, -27.5366257]]], [[[-56.8817273, -27.5732029], [-56.8817166, -27.5732659], [-56.8817273, -27.5732029]]], [[[-56.8743727, -27.5822681], [-56.8625025, -27.588417], [-56.8743378, -27.5824821], [-56.8743727, -27.5822681]]], [[[-56.8275681, -27.594625], [-56.8275661, -27.594644], [-56.8275681, -27.594625]]], [[[-56.7936103, -27.5727876], [-56.7935032, -27.5728333], [-56.7936103, -27.5727876]]], [[[-56.7905324, -27.5716024], [-56.7905206, -27.5716301], [-56.7905324, -27.5716024]]], [[[-56.7785293, -27.5843768], [-56.7658156, -27.5863262], [-56.7784649, -27.5844577], [-56.7785293, -27.5843768]]], [[[-56.7756446, -27.5758633], [-56.7579624, -27.5683], [-56.7752211, -27.5759985], [-56.7756446, -27.5758633]]], [[[-56.7729269, -27.4983272], [-56.7641701, -27.5027961], [-56.7728779, -27.4984791], [-56.7729269, -27.4983272]]], [[[-56.7725667, -27.5760702], [-56.7581069, -27.5715148], [-56.772202, -27.5761082], [-56.7725667, -27.5760702]]], [[[-56.7680808, -27.5695044], [-56.7610479, -27.5675863], [-56.7678881, -27.5701787], [-56.7680808, -27.5695044]]], [[[-56.7581096, -27.5713834], [-56.7580768, -27.5714191], [-56.7581096, -27.5713834]]], [[[-56.7544719, -27.5705316], [-56.7544645, -27.5705667], [-56.7544719, -27.5705316]]], [[[-56.7361561, -27.5436553], [-56.7361297, -27.5436979], [-56.7361561, -27.5436553]]], [[[-56.7327876, -27.5327029], [-56.7253315, -27.5208548], [-56.7327586, -27.5328924], [-56.7327876, -27.5327029]]], [[[-56.7321754, -27.5424662], [-56.7321683, -27.5426311], [-56.7321754, -27.5424662]]], [[[-56.7301664, -27.5342158], [-56.7301523, -27.5342461], [-56.7301664, -27.5342158]]]]}}, {"id": "466", "type": "Feature", "properties": {"osm_id": "6616301", "name": "3 de Mayo", "code": 1207, "source": "OSM via Geofabrik", "admin_level": 7, "layer": "distritos_sub"}, "geometry": {"type": "Polygon", "coordinates": [[[-56.2761131, -26.3766393], [-56.2587766, -26.3648985], [-56.2576449, -26.3411149], [-56.2442163, -26.3189283], [-56.2467007, -26.3032896], [-56.2175559, -26.2953596], [-56.2194892, -26.2863728], [-56.2061587, -26.2721738], [-56.1815317, -26.2619005], [-56.1635277, -26.267783], [-56.1345948, -26.242633], [-56.1171869, -26.2540435], [-56.097854, -26.2858583], [-56.071086, -26.2951239], [-56.1040823, -26.3374871], [-56.0530895, -26.3586373], [-56.0259557, -26.3496454], [-56.0194845, -26.359456], [-55.9860106, -26.343019], [-55.9695227, -26.3447137], [-55.9610453, -26.3763787], [-55.8854531, -26.3571801], [-55.8710972, -26.3945373], [-55.8494914, -26.4188206], [-55.8510861, -26.4391921], [-55.870318, -26.4428438], [-55.8807832, -26.4533493], [-55.8761809, -26.457728], [-55.9012379, -26.4794327], [-55.897105, -26.4878784], [-55.9084906, -26.4974907], [-55.9111399, -26.5134142], [-55.9364289, -26.5212745], [-55.9550684, -26.5112735], [-56.013691, -26.5136229], [-56.0205232, -26.5326297], [-56.0306931, -26.5339135], [-56.0250593, -26.5431653], [-56.030324, -26.5470654], [-56.0484369, -26.5393192], [-56.056123, -26.5234847], [-56.0941746, -26.5510078], [-56.1078888, -26.5210236], [-56.1245702, -26.4973682], [-56.1363763, -26.4933908], [-56.1552672, -26.4608879], [-56.2761123, -26.3767792], [-56.2761131, -26.3766393]]]}}, {"id": "467", "type": "Feature", "properties": {"osm_id": "2263842", "name": "Yuty", "code": 1207, "source": "OSM via Geofabrik", "admin_level": 7, "layer": "distritos_sub"}, "geometry": {"type": "Polygon", "coordinates": [[[-56.6621112, -26.7228094], [-56.6550276, -26.7195601], [-56.6556393, -26.7062756], [-56.6496622, -26.7081254], [-56.6528281, -26.6859646], [-56.6464766, -26.6870382], [-56.6457899, -26.6789091], [-56.6229718, -26.6802919], [-56.6197401, -26.6741647], [-56.6092576, -26.6816551], [-56.6015079, -26.667783], [-56.5929119, -26.6709788], [-56.5802148, -26.655615], [-56.5731772, -26.6590163], [-56.5724882, -26.6500729], [-56.5603748, -26.6514551], [-56.5439031, -26.6293913], [-56.5120036, -26.6268819], [-56.5017939, -26.6176514], [-56.4877043, -26.6254808], [-56.4871794, -26.6199959], [-56.4724809, -26.6212865], [-56.4564758, -26.6093252], [-56.459909, -26.6008501], [-56.4398591, -26.6100786], [-56.4366848, -26.5970074], [-56.4134509, -26.591343], [-56.4050881, -26.5980862], [-56.4101329, -26.6076545], [-56.3732592, -26.6073431], [-56.3681973, -26.6207395], [-56.3556241, -26.613539], [-56.3497793, -26.6208989], [-56.3502763, -26.6128823], [-56.3380636, -26.6104733], [-56.3304907, -26.5892304], [-56.3390967, -26.5777344], [-56.3340039, -26.5662122], [-56.3405928, -26.5437668], [-56.3250591, -26.4954736], [-56.3440277, -26.4825582], [-56.336767, -26.478074], [-56.338084, -26.4647912], [-56.3697554, -26.4068132], [-56.3572443, -26.3885418], [-56.330581, -26.3864689], [-56.3067312, -26.3724289], [-56.2655833, -26.3802738], [-56.2600547, -26.3904344], [-56.2165909, -26.4137515], [-56.2106407, -26.427787], [-56.1552672, -26.4608879], [-56.1363763, -26.4933908], [-56.1245702, -26.4973682], [-56.1078888, -26.5210236], [-56.0949066, -26.550855], [-56.12262, -26.5963453], [-56.1170839, -26.6269158], [-56.1548065, -26.6373216], [-56.158583, -26.6553112], [-56.1811747, -26.6668653], [-56.1783638, -26.6757719], [-56.185727, -26.6836707], [-56.1740722, -26.6981359], [-56.1819504, -26.7113044], [-56.2155392, -26.6976279], [-56.223264, -26.7052956], [-56.2409344, -26.69388], [-56.2498393, -26.702612], [-56.2605681, -26.6978579], [-56.2700828, -26.713393], [-56.2756416, -26.7091293], [-56.3074419, -26.7287845], [-56.3562795, -26.7277017], [-56.3902401, -26.7483305], [-56.3938342, -26.7438179], [-56.4040765, -26.7623372], [-56.4165504, -26.762921], [-56.4220269, -26.7723467], [-56.4369621, -26.7760499], [-56.4506575, -26.769743], [-56.4538254, -26.7776101], [-56.4685955, -26.7724297], [-56.473021, -26.7835469], [-56.4909298, -26.7866235], [-56.4910153, -26.7943704], [-56.5404423, -26.7702567], [-56.5395525, -26.7575278], [-56.5641895, -26.761321], [-56.6026969, -26.7403745], [-56.612639, -26.7480043], [-56.636305, -26.7390652], [-56.6401015, -26.744113], [-56.648808, -26.7319911], [-56.6456995, -26.7247151], [-56.6620983, -26.7228997], [-56.6621112, -26.7228094]]]}}, {"id": "791", "type": "Feature", "properties": {"osm_id": "2264105", "name": "Fulgencio Yegros", "code": 1207, "source": "OSM via Geofabrik", "admin_level": 7, "layer": "distritos_sub"}, "geometry": {"type": "Polygon", "coordinates": [[[-56.8490816, -26.5281566], [-56.836605, -26.5196821], [-56.8436308, -26.5150486], [-56.8326294, -26.5040945], [-56.824328, -26.5120666], [-56.8217429, -26.4962342], [-56.8104132, -26.4871696], [-56.7959403, -26.4927342], [-56.5460144, -26.4793769], [-56.4415634, -26.4135617], [-56.4341691, -26.3925203], [-56.4226963, -26.3889083], [-56.4207058, -26.365372], [-56.4012132, -26.3764139], [-56.3880847, -26.3719008], [-56.3671483, -26.3856226], [-56.3683741, -26.4133671], [-56.3582139, -26.4184596], [-56.3537051, -26.4454748], [-56.3445776, -26.448261], [-56.3461735, -26.4598255], [-56.338084, -26.4647912], [-56.336767, -26.478074], [-56.3440277, -26.4825582], [-56.3250591, -26.4954736], [-56.3272478, -26.511335], [-56.3364209, -26.5160197], [-56.3300051, -26.520887], [-56.340998, -26.5489913], [-56.3308257, -26.5952239], [-56.3380636, -26.6104733], [-56.3505551, -26.6131979], [-56.3497793, -26.6208989], [-56.3556241, -26.613539], [-56.3681973, -26.6207395], [-56.3737088, -26.6072461], [-56.4085681, -26.6083966], [-56.4050881, -26.5980862], [-56.4132353, -26.5913632], [-56.4366848, -26.5970074], [-56.4398591, -26.6100786], [-56.4593512, -26.600586], [-56.4564758, -26.6093252], [-56.4724809, -26.6212865], [-56.4871794, -26.6199959], [-56.4877043, -26.6254808], [-56.5017939, -26.6176514], [-56.5120036, -26.6268819], [-56.5439031, -26.6293913], [-56.5603748, -26.6514551], [-56.5724882, -26.6500729], [-56.5731772, -26.6590163], [-56.5802148, -26.655615], [-56.5813631, -26.6648218], [-56.5937158, -26.671228], [-56.6015079, -26.667783], [-56.610127, -26.6817577], [-56.6197401, -26.6741647], [-56.6361769, -26.6801362], [-56.6365202, -26.6670978], [-56.6514548, -26.6620354], [-56.6596945, -26.6628024], [-56.6562613, -26.6712395], [-56.664501, -26.6706259], [-56.6734274, -26.6532908], [-56.6978033, -26.6585069], [-56.7022665, -26.6471538], [-56.7084463, -26.6523703], [-56.731964, -26.6393287], [-56.7271574, -26.6287409], [-56.7395171, -26.6290478], [-56.7390021, -26.6226026], [-56.7535933, -26.6287409], [-56.7530783, -26.6357995], [-56.7668112, -26.6305823], [-56.7632063, -26.6362599], [-56.7693861, -26.6381012], [-56.7709311, -26.6270529], [-56.7635497, -26.6218353], [-56.7709311, -26.6173848], [-56.8055684, -26.622663], [-56.8010306, -26.6150568], [-56.82208, -26.5850511], [-56.8177325, -26.5673416], [-56.8070519, -26.5680133], [-56.8208052, -26.5436822], [-56.8318227, -26.5494207], [-56.8390249, -26.5360794], [-56.8474567, -26.5434922], [-56.8490456, -26.5286586], [-56.8490816, -26.5281566]]]}}, {"id": "1136", "type": "Feature", "properties": {"osm_id": "2263967", "name": "Aba\u00ed", "code": 1207, "source": "OSM via Geofabrik", "admin_level": 7, "layer": "distritos_sub"}, "geometry": {"type": "Polygon", "coordinates": [[[-56.0271601, -25.8924568], [-55.9835214, -25.8544248], [-55.9279399, -25.8529867], [-55.903529, -25.8267873], [-55.8736043, -25.8272085], [-55.8476592, -25.8016382], [-55.8216311, -25.7987705], [-55.8136247, -25.7840876], [-55.8010234, -25.7870812], [-55.798987, -25.7955606], [-55.7787994, -25.776608], [-55.7612427, -25.7786919], [-55.7553257, -25.7715086], [-55.7604699, -25.7603191], [-55.7521497, -25.7539948], [-55.760599, -25.7482941], [-55.7621061, -25.7179169], [-55.7277992, -25.7093625], [-55.7023521, -25.721485], [-55.6916948, -25.7429909], [-55.6853833, -25.7373092], [-55.6790383, -25.7422175], [-55.6360704, -25.6509076], [-55.6141316, -25.6482078], [-55.6086184, -25.6589489], [-55.5942272, -25.6581666], [-55.5795728, -25.6365615], [-55.5575473, -25.6364906], [-55.5498115, -25.6198649], [-55.5369574, -25.6210766], [-55.53857, -25.5872178], [-55.514896, -25.5630325], [-55.5043764, -25.5663377], [-55.492623, -25.5578882], [-55.4874699, -25.5321816], [-55.4780977, -25.5237669], [-55.4576056, -25.5277605], [-55.443597, -25.5458494], [-55.4327179, -25.5431971], [-55.4233109, -25.5559302], [-55.4152643, -25.5894973], [-55.3992493, -25.604312], [-55.3998333, -25.6230503], [-55.4168308, -25.6307508], [-55.4272804, -25.6597671], [-55.4529193, -25.6541195], [-55.4603107, -25.6755088], [-55.4770738, -25.6804065], [-55.4657717, -25.7172812], [-55.478251, -25.7272437], [-55.4841117, -25.7574816], [-55.5021825, -25.7816972], [-55.5144262, -25.7856327], [-55.5230685, -25.809149], [-55.5296766, -25.8453506], [-55.5120867, -25.8702548], [-55.5256962, -25.8806351], [-55.5158442, -25.9018306], [-55.5340705, -25.9699932], [-55.5572134, -26.0026547], [-55.5763811, -26.014491], [-55.5975392, -26.0151944], [-55.6499697, -26.0577337], [-55.647607, -26.0996024], [-55.6581419, -26.1082822], [-55.671632, -26.1439376], [-55.70663, -26.1508648], [-55.7115412, -26.1789596], [-55.7269306, -26.1757064], [-55.7638737, -26.1131412], [-55.7868273, -26.1121625], [-55.7988807, -26.1211068], [-55.8144577, -26.089171], [-55.8417788, -26.076331], [-55.8951751, -26.1118959], [-55.968379, -26.0705399], [-55.9947923, -26.0820215], [-55.9817694, -26.057191], [-55.9925344, -26.0275387], [-55.9907862, -25.9910133], [-55.9994268, -25.9845138], [-55.9990645, -25.9676495], [-55.9887274, -25.9650405], [-55.999169, -25.9561156], [-55.9911838, -25.9344837], [-56.0162051, -25.9107751], [-56.0271601, -25.8924568]]]}}]}