{"type":"FeatureCollection","metadata":{"source":"NASA POWER + INBIO crop signals + Hansen/Global Forest Watch references","count":18,"note":"Combined climate risk = deforestation (50%) + drought (50%). Year 2024 baseline.","license":"Public domain \u2014 derived from open data","as_of_utc":"2026-07-11T15:44:21.430122+00:00"},"features":[{"type":"Feature","geometry":{"type":"MultiPolygon","coordinates":[[[[-57.57,-25.23],[-57.55,-25.23],[-57.52,-25.24],[-57.52,-25.24],[-57.53,-25.24],[-57.53,-25.24],[-57.53,-25.25],[-57.53,-25.25],[-57.53,-25.25],[-57.53,-25.25],[-57.53,-25.25],[-57.53,-25.25],[-57.53,-25.25],[-57.53,-25.25],[-57.53,-25.25],[-57.53,-25.25],[-57.53,-25.25],[-57.54,-25.26],[-57.54,-25.27],[-57.54,-25.27],[-57.54,-25.27],[-57.54,-25.28],[-57.54,-25.28],[-57.54,-25.28],[-57.54,-25.28],[-57.54,-25.28],[-57.54,-25.28],[-57.54,-25.28],[-57.54,-25.28],[-57.54,-25.28],[-57.54,-25.28],[-57.54,-25.28],[-57.54,-25.28],[-57.54,-25.28],[-57.54,-25.28],[-57.54,-25.28],[-57.54,-25.28],[-57.54,-25.28],[-57.54,-25.28],[-57.54,-25.28],[-57.54,-25.28],[-57.54,-25.28],[-57.54,-25.28],[-57.54,-25.28],[-57.54,-25.28],[-57.54,-25.29],[-57.54,-25.29],[-57.54,-25.29],[-57.54,-25.29],[-57.54,-25.29],[-57.54,-25.29],[-57.54,-25.29],[-57.54,-25.29],[-57.54,-25.29],[-57.54,-25.29],[-57.54,-25.29],[-57.54,-25.29],[-57.54,-25.29],[-57.54,-25.29],[-57.54,-25.29],[-57.54,-25.29],[-57.54,-25.29],[-57.54,-25.29],[-57.54,-25.29],[-57.54,-25.29],[-57.54,-25.29],[-57.54,-25.29],[-57.54,-25.29],[-57.54,-25.29],[-57.54,-25.29],[-57.54,-25.29],[-57.54,-25.29],[-57.54,-25.29],[-57.54,-25.3],[-57.54,-25.3],[-57.54,-25.3],[-57.54,-25.3],[-57.54,-25.3],[-57.55,-25.3],[-57.55,-25.31],[-57.59,-25.34],[-57.59,-25.34],[-57.6,-25.33],[-57.61,-25.32],[-57.62,-25.32],[-57.63,-25.33],[-57.63,-25.34],[-57.64,-25.35],[-57.64,-25.37],[-57.65,-25.37],[-57.66,-25.35],[-57.67,-25.34],[-57.67,-25.32],[-57.67,-25.3],[-57.67,-25.28],[-57.65,-25.27],[-57.62,-25.25],[-57.61,-25.25],[-57.6,-25.24],[-57.58,-25.23],[-57.57,-25.23]]]]},"properties":{"id":1,"depto":"Asuncion","risk_score":0.165,"risk_level":"low","forest_loss_pct_2020_2024":0.5,"driver":"urban/agriculture","annual_precip_mm":1300,"spi_2024":-0.2,"drought_freq":0.18,"is_valid_geometry":true}},{"type":"Feature","geometry":{"type":"MultiPolygon","coordinates":[[[[-57.95,-22.09],[-57.89,-22.13],[-57.84,-22.13],[-57.8,-22.14],[-57.74,-22.14],[-57.72,-22.1],[-57.65,-22.11],[-57.61,-22.12],[-57.59,-22.14],[-57.55,-22.18],[-57.48,-22.19],[-57.43,-22.2],[-57.38,-22.21],[-57.35,-22.23],[-57.32,-22.24],[-57.28,-22.23],[-57.22,-22.23],[-57.19,-22.23],[-57.12,-22.23],[-57.07,-22.24],[-57.0,-22.23],[-56.92,-22.26],[-56.62,-22.37],[-56.65,-22.4],[-56.67,-22.43],[-56.7,-22.44],[-56.72,-22.48],[-56.73,-22.52],[-56.74,-22.55],[-56.73,-22.58],[-56.72,-22.62],[-56.72,-22.64],[-56.71,-22.66],[-56.69,-22.69],[-56.7,-22.7],[-56.67,-22.71],[-56.67,-22.73],[-56.67,-22.76],[-56.67,-22.76],[-56.67,-22.77],[-56.66,-22.79],[-56.65,-22.8],[-56.66,-22.82],[-56.68,-22.84],[-56.71,-22.84],[-56.71,-22.86],[-56.71,-22.89],[-56.7,-22.9],[-56.67,-22.89],[-56.64,-22.89],[-56.62,-22.89],[-56.62,-22.91],[-56.58,-22.9],[-56.56,-22.89],[-56.54,-22.86],[-56.51,-22.8],[-56.46,-22.77],[-56.43,-22.76],[-56.41,-22.74],[-56.39,-22.73],[-56.38,-22.72],[-56.36,-22.71],[-56.34,-22.69],[-56.3,-22.69],[-56.14,-23.08],[-56.15,-23.1],[-56.16,-23.12],[-56.19,-23.12],[-56.18,-23.15],[-56.2,-23.16],[-56.22,-23.19],[-56.2,-23.21],[-56.21,-23.22],[-56.23,-23.23],[-56.26,-23.24],[-56.27,-23.26],[-56.29,-23.28],[-56.29,-23.31],[-56.33,-23.35],[-56.47,-23.41],[-56.62,-23.45],[-56.77,-23.44],[-56.93,-23.44],[-57.01,-23.45],[-57.03,-23.44],[-57.05,-23.45],[-57.07,-23.46],[-57.1,-23.47],[-57.13,-23.47],[-57.15,-23.48],[-57.17,-23.48],[-57.19,-23.48],[-57.22,-23.48],[-57.24,-23.47],[-57.29,-23.49],[-57.36,-23.51],[-57.52,-23.34],[-57.77,-23.04],[-57.94,-22.71],[-57.83,-22.39],[-57.96,-22.13],[-57.95,-22.09]]]]},"properties":{"id":2,"depto":"Concepcion","risk_score":0.165,"risk_level":"low","forest_loss_pct_2020_2024":0.5,"driver":"urban/agriculture","annual_precip_mm":1300,"spi_2024":-0.2,"drought_freq":0.18,"is_valid_geometry":true}},{"type":"Feature","geometry":{"type":"MultiPolygon","coordinates":[[[[-56.19,-23.3],[-56.16,-23.36],[-56.16,-23.41],[-56.17,-23.47],[-56.13,-23.57],[-56.11,-23.61],[-56.06,-23.6],[-56.01,-23.62],[-55.98,-23.66],[-55.98,-23.69],[-55.98,-23.72],[-55.98,-23.76],[-56.0,-23.79],[-56.03,-23.82],[-56.04,-24.05],[-56.09,-24.08],[-56.15,-24.12],[-56.16,-24.16],[-56.15,-24.18],[-56.15,-24.2],[-56.16,-24.21],[-56.17,-24.23],[-56.17,-24.25],[-56.16,-24.26],[-56.16,-24.28],[-56.13,-24.3],[-56.12,-24.31],[-56.13,-24.33],[-56.13,-24.34],[-56.12,-24.36],[-56.12,-24.38],[-56.09,-24.4],[-56.06,-24.4],[-56.05,-24.42],[-56.04,-24.43],[-56.02,-24.45],[-56.01,-24.48],[-56.0,-24.5],[-55.99,-24.52],[-55.98,-24.54],[-55.97,-24.55],[-55.95,-24.56],[-55.94,-24.57],[-55.94,-24.59],[-55.94,-24.62],[-55.93,-24.64],[-55.91,-24.66],[-55.89,-24.67],[-55.85,-24.72],[-55.8,-24.78],[-55.71,-24.8],[-56.18,-24.89],[-56.2,-24.85],[-56.22,-24.81],[-56.24,-24.78],[-56.26,-24.78],[-56.24,-24.93],[-56.27,-24.94],[-56.3,-24.94],[-56.32,-24.93],[-56.34,-24.92],[-56.36,-24.92],[-56.55,-25.0],[-56.59,-24.99],[-56.62,-24.97],[-56.7,-24.88],[-56.73,-24.89],[-56.97,-24.87],[-56.98,-24.88],[-56.98,-24.9],[-56.99,-24.91],[-56.99,-24.92],[-57.0,-24.94],[-57.0,-24.95],[-57.01,-24.96],[-57.01,-24.98],[-57.03,-24.98],[-57.05,-24.98],[-57.05,-25.0],[-57.08,-25.01],[-57.17,-24.97],[-57.22,-24.96],[-57.23,-24.9],[-57.25,-24.18],[-57.41,-23.49],[-57.32,-23.5],[-57.25,-23.48],[-57.22,-23.48],[-57.19,-23.48],[-57.17,-23.48],[-57.14,-23.48],[-57.11,-23.46],[-57.08,-23.46],[-57.05,-23.45],[-57.03,-23.45],[-57.0,-23.45],[-56.88,-23.44],[-56.69,-23.45],[-56.5,-23.42],[-56.34,-23.35],[-56.23,-23.32],[-56.19,-23.3]]]]},"properties":{"id":3,"depto":"San Pedro","risk_score":0.345,"risk_level":"low","forest_loss_pct_2020_2024":2.8,"driver":"cattle_smallholders","annual_precip_mm":1180,"spi_2024":-0.5,"drought_freq":0.28,"is_valid_geometry":true}},{"type":"Feature","geometry":{"type":"MultiPolygon","coordinates":[[[[-56.78,-25.47],[-56.84,-25.5],[-56.85,-25.52],[-56.72,-25.66],[-56.73,-25.66],[-56.74,-25.66],[-56.75,-25.66],[-56.76,-25.65],[-56.77,-25.64],[-56.78,-25.63],[-56.79,-25.63],[-56.9,-25.67],[-56.92,-25.62],[-56.91,-25.6],[-56.91,-25.59],[-56.92,-25.59],[-56.94,-25.6],[-56.95,-25.59],[-56.98,-25.59],[-56.98,-25.58],[-56.97,-25.57],[-56.98,-25.57],[-57.0,-25.58],[-57.02,-25.59],[-57.05,-25.59],[-57.07,-25.58],[-57.09,-25.57],[-57.13,-25.5],[-57.24,-25.36],[-57.26,-25.36],[-57.27,-25.36],[-57.28,-25.36],[-57.33,-25.25],[-57.33,-25.24],[-57.34,-25.23],[-57.34,-25.23],[-57.35,-25.23],[-57.35,-25.22],[-57.36,-25.21],[-57.37,-25.21],[-57.38,-25.21],[-57.38,-25.2],[-57.38,-25.2],[-57.39,-25.2],[-57.39,-25.19],[-57.39,-25.19],[-57.4,-25.19],[-57.4,-25.18],[-57.4,-25.17],[-57.4,-25.17],[-57.41,-25.16],[-57.41,-25.15],[-57.42,-25.15],[-57.43,-25.14],[-57.43,-25.14],[-57.43,-25.13],[-57.44,-25.13],[-57.44,-25.13],[-57.44,-25.13],[-57.45,-25.12],[-57.48,-25.11],[-57.37,-25.05],[-57.26,-24.95],[-57.22,-24.96],[-57.2,-24.95],[-57.17,-24.98],[-57.12,-25.01],[-57.07,-25.01],[-57.04,-25.01],[-57.05,-25.0],[-57.05,-24.99],[-57.05,-24.98],[-57.03,-24.98],[-57.03,-24.98],[-57.02,-24.98],[-57.01,-24.97],[-57.02,-24.96],[-57.01,-24.96],[-57.0,-24.95],[-57.0,-24.94],[-57.0,-24.94],[-57.0,-24.93],[-56.99,-24.93],[-56.99,-24.92],[-56.99,-24.91],[-56.98,-24.9],[-56.98,-24.9],[-56.99,-24.89],[-56.99,-24.88],[-56.98,-24.87],[-56.96,-24.87],[-56.78,-24.87],[-56.73,-24.89],[-56.71,-24.88],[-56.7,-24.88],[-56.62,-24.97],[-56.61,-24.98],[-56.59,-24.99],[-56.58,-24.99],[-56.56,-25.0],[-56.65,-25.4],[-56.78,-25.47]]]]},"properties":{"id":4,"depto":"Cordillera","risk_score":0.175,"risk_level":"low","forest_loss_pct_2020_2024":0.5,"driver":"urban/agriculture","annual_precip_mm":1280,"spi_2024":-0.3,"drought_freq":0.2,"is_valid_geometry":true}},{"type":"Feature","geometry":{"type":"MultiPolygon","coordinates":[[[[-56.32,-25.57],[-56.28,-25.58],[-56.25,-25.57],[-56.2,-25.58],[-56.18,-25.59],[-55.88,-25.66],[-55.83,-25.69],[-55.79,-25.69],[-55.73,-25.68],[-55.69,-25.68],[-55.68,-25.65],[-55.66,-25.65],[-55.64,-25.65],[-55.64,-25.67],[-55.65,-25.68],[-55.65,-25.69],[-55.66,-25.7],[-55.67,-25.71],[-55.67,-25.73],[-55.67,-25.74],[-55.69,-25.74],[-55.7,-25.74],[-55.7,-25.72],[-55.71,-25.72],[-55.72,-25.71],[-55.74,-25.71],[-55.76,-25.72],[-55.76,-25.72],[-55.76,-25.74],[-55.76,-25.75],[-55.76,-25.76],[-55.76,-25.77],[-55.76,-25.78],[-55.77,-25.78],[-55.79,-25.79],[-55.8,-25.79],[-55.8,-25.79],[-55.82,-25.79],[-55.83,-25.8],[-55.85,-25.81],[-55.86,-25.82],[-55.94,-25.85],[-55.96,-25.86],[-55.99,-25.86],[-56.0,-25.95],[-55.99,-25.97],[-56.0,-25.98],[-56.03,-25.98],[-56.06,-25.99],[-56.08,-25.98],[-56.09,-26.0],[-56.1,-26.02],[-56.11,-26.02],[-56.13,-26.03],[-56.18,-26.06],[-56.43,-26.13],[-56.46,-26.12],[-56.53,-26.12],[-56.54,-26.15],[-56.55,-26.18],[-56.58,-26.19],[-56.62,-26.18],[-56.69,-26.16],[-56.71,-26.11],[-56.72,-26.09],[-56.72,-26.08],[-56.71,-26.06],[-56.71,-26.05],[-56.7,-26.03],[-56.71,-26.02],[-56.74,-25.97],[-56.59,-25.98],[-56.58,-25.98],[-56.58,-25.98],[-56.57,-25.98],[-56.57,-25.96],[-56.61,-25.94],[-56.61,-25.91],[-56.63,-25.89],[-56.64,-25.88],[-56.65,-25.86],[-56.66,-25.71],[-56.65,-25.69],[-56.62,-25.68],[-56.59,-25.66],[-56.55,-25.64],[-56.53,-25.63],[-56.51,-25.63],[-56.49,-25.63],[-56.47,-25.63],[-56.44,-25.62],[-56.43,-25.62],[-56.43,-25.6],[-56.42,-25.6],[-56.42,-25.59],[-56.41,-25.58],[-56.4,-25.57],[-56.39,-25.57],[-56.38,-25.57],[-56.37,-25.58],[-56.34,-25.57],[-56.32,-25.57]]]]},"properties":{"id":5,"depto":"Guaira","risk_score":0.165,"risk_level":"low","forest_loss_pct_2020_2024":0.5,"driver":"urban/agriculture","annual_precip_mm":1300,"spi_2024":-0.2,"drought_freq":0.18,"is_valid_geometry":true}},{"type":"Feature","geometry":{"type":"MultiPolygon","coordinates":[[[[-55.17,-24.47],[-55.2,-24.52],[-55.27,-24.52],[-55.3,-24.56],[-55.3,-24.6],[-55.3,-24.62],[-55.3,-24.63],[-55.3,-24.64],[-55.29,-24.65],[-55.3,-24.66],[-55.31,-24.67],[-55.31,-24.68],[-55.32,-24.69],[-55.31,-24.7],[-55.3,-24.7],[-55.3,-24.71],[-55.3,-24.73],[-55.31,-24.74],[-55.32,-24.75],[-55.32,-24.76],[-55.32,-24.77],[-55.33,-24.78],[-55.33,-24.79],[-55.33,-24.8],[-55.34,-24.81],[-55.33,-24.83],[-55.34,-24.84],[-55.35,-24.84],[-55.34,-24.86],[-55.33,-24.88],[-55.34,-24.91],[-55.33,-24.94],[-55.33,-24.97],[-55.31,-25.0],[-55.29,-25.02],[-55.25,-25.04],[-55.23,-25.05],[-55.21,-25.05],[-55.17,-25.07],[-55.16,-25.1],[-55.11,-25.13],[-55.09,-25.14],[-55.06,-25.16],[-55.04,-25.17],[-55.01,-25.2],[-55.0,-25.24],[-54.96,-25.26],[-54.96,-25.3],[-54.94,-25.35],[-55.17,-25.32],[-55.45,-25.54],[-55.47,-25.53],[-55.49,-25.56],[-55.52,-25.57],[-55.54,-25.59],[-55.53,-25.61],[-55.56,-25.63],[-55.58,-25.64],[-55.59,-25.66],[-55.63,-25.65],[-55.67,-25.65],[-55.69,-25.67],[-55.74,-25.69],[-55.81,-25.69],[-55.87,-25.67],[-56.17,-25.59],[-56.2,-25.58],[-56.26,-25.58],[-56.29,-25.57],[-56.35,-25.57],[-56.38,-25.57],[-56.39,-25.57],[-56.4,-25.57],[-56.41,-25.58],[-56.42,-25.59],[-56.43,-25.6],[-56.43,-25.62],[-56.45,-25.62],[-56.48,-25.64],[-56.51,-25.62],[-56.53,-25.63],[-56.56,-25.65],[-56.61,-25.68],[-56.65,-25.7],[-56.67,-25.7],[-56.7,-25.7],[-56.7,-25.68],[-56.72,-25.66],[-56.84,-25.5],[-56.38,-24.91],[-56.34,-24.92],[-56.32,-24.92],[-56.3,-24.94],[-56.28,-24.94],[-56.24,-24.93],[-56.26,-24.77],[-56.24,-24.78],[-56.22,-24.82],[-56.2,-24.86],[-56.17,-24.92],[-55.48,-24.55],[-55.17,-24.47]]]]},"properties":{"id":6,"depto":"Caaguazu","risk_score":0.165,"risk_level":"low","forest_loss_pct_2020_2024":0.5,"driver":"urban/agriculture","annual_precip_mm":1300,"spi_2024":-0.2,"drought_freq":0.18,"is_valid_geometry":true}},{"type":"Feature","geometry":{"type":"MultiPolygon","coordinates":[[[[-55.48,-25.53],[-55.43,-25.55],[-55.41,-25.6],[-55.42,-25.63],[-55.43,-25.66],[-55.46,-25.67],[-55.48,-25.69],[-55.47,-25.72],[-55.48,-25.74],[-55.49,-25.77],[-55.52,-25.79],[-55.52,-25.83],[-55.52,-25.86],[-55.52,-25.88],[-55.52,-25.92],[-55.55,-26.0],[-55.52,-25.99],[-55.48,-25.99],[-55.45,-26.0],[-55.42,-26.0],[-55.41,-26.01],[-55.39,-26.03],[-55.38,-26.01],[-55.35,-25.99],[-55.32,-26.03],[-55.25,-26.06],[-55.29,-26.08],[-55.57,-26.39],[-55.66,-26.38],[-55.69,-26.36],[-55.73,-26.37],[-55.76,-26.38],[-55.8,-26.39],[-55.83,-26.41],[-55.83,-26.43],[-55.85,-26.45],[-55.87,-26.45],[-55.88,-26.46],[-55.9,-26.48],[-55.91,-26.51],[-55.95,-26.52],[-55.99,-26.51],[-56.02,-26.52],[-56.03,-26.55],[-56.06,-26.52],[-56.09,-26.55],[-56.11,-26.57],[-56.12,-26.6],[-56.12,-26.63],[-56.15,-26.64],[-56.16,-26.66],[-56.18,-26.67],[-56.18,-26.7],[-56.2,-26.71],[-56.23,-26.7],[-56.27,-26.7],[-56.31,-26.72],[-56.34,-26.73],[-56.39,-26.75],[-56.42,-26.77],[-56.46,-26.78],[-56.49,-26.79],[-56.53,-26.77],[-56.57,-26.76],[-56.62,-26.75],[-56.66,-26.72],[-56.65,-26.68],[-56.67,-26.66],[-56.72,-26.64],[-56.83,-26.54],[-56.79,-26.44],[-56.74,-26.37],[-56.7,-26.28],[-56.63,-26.19],[-56.57,-26.19],[-56.54,-26.12],[-56.43,-26.13],[-56.13,-26.03],[-56.1,-26.01],[-56.06,-25.99],[-56.01,-25.98],[-56.0,-25.96],[-55.96,-25.86],[-55.86,-25.82],[-55.82,-25.8],[-55.8,-25.79],[-55.78,-25.78],[-55.76,-25.77],[-55.76,-25.75],[-55.76,-25.72],[-55.72,-25.71],[-55.7,-25.72],[-55.69,-25.74],[-55.67,-25.72],[-55.66,-25.7],[-55.64,-25.67],[-55.61,-25.65],[-55.58,-25.64],[-55.53,-25.61],[-55.52,-25.57],[-55.49,-25.55],[-55.48,-25.53]]]]},"properties":{"id":7,"depto":"Caazapa","risk_score":0.165,"risk_level":"low","forest_loss_pct_2020_2024":0.5,"driver":"urban/agriculture","annual_precip_mm":1300,"spi_2024":-0.2,"drought_freq":0.18,"is_valid_geometry":true}},{"type":"Feature","geometry":{"type":"MultiPolygon","coordinates":[[[[-55.31,-26.09],[-55.31,-26.11],[-55.32,-26.13],[-55.31,-26.14],[-55.3,-26.16],[-55.3,-26.18],[-55.29,-26.2],[-55.26,-26.22],[-55.13,-26.21],[-55.1,-26.22],[-55.07,-26.24],[-55.05,-26.24],[-55.04,-26.23],[-55.02,-26.23],[-54.99,-26.22],[-54.98,-26.24],[-54.96,-26.23],[-54.96,-26.22],[-54.94,-26.21],[-54.92,-26.23],[-54.91,-26.22],[-54.92,-26.2],[-54.91,-26.19],[-54.88,-26.19],[-54.86,-26.18],[-54.81,-26.21],[-54.77,-26.23],[-54.71,-26.25],[-54.83,-26.67],[-55.58,-27.25],[-56.76,-27.38],[-56.67,-27.32],[-56.67,-27.3],[-56.68,-27.28],[-56.7,-27.27],[-56.7,-27.25],[-56.71,-27.24],[-56.7,-27.23],[-56.69,-27.21],[-56.66,-27.18],[-56.64,-26.74],[-56.61,-26.75],[-56.58,-26.75],[-56.55,-26.76],[-56.53,-26.78],[-56.51,-26.79],[-56.48,-26.79],[-56.46,-26.78],[-56.44,-26.78],[-56.41,-26.77],[-56.39,-26.74],[-56.36,-26.73],[-56.34,-26.73],[-56.31,-26.73],[-56.29,-26.72],[-56.27,-26.7],[-56.24,-26.7],[-56.22,-26.7],[-56.2,-26.71],[-56.18,-26.71],[-56.18,-26.69],[-56.18,-26.68],[-56.17,-26.66],[-56.16,-26.66],[-56.16,-26.64],[-56.14,-26.63],[-56.12,-26.63],[-56.12,-26.61],[-56.12,-26.59],[-56.11,-26.57],[-56.1,-26.56],[-56.09,-26.55],[-56.07,-26.53],[-56.05,-26.53],[-56.03,-26.55],[-56.02,-26.53],[-56.01,-26.52],[-55.99,-26.51],[-55.97,-26.51],[-55.94,-26.52],[-55.92,-26.52],[-55.91,-26.5],[-55.9,-26.48],[-55.89,-26.47],[-55.88,-26.46],[-55.87,-26.45],[-55.86,-26.44],[-55.84,-26.44],[-55.83,-26.43],[-55.83,-26.43],[-55.82,-26.41],[-55.81,-26.4],[-55.79,-26.39],[-55.76,-26.39],[-55.74,-26.38],[-55.72,-26.37],[-55.7,-26.36],[-55.67,-26.36],[-55.66,-26.37],[-55.62,-26.4],[-55.37,-26.21],[-55.31,-26.09]]]]},"properties":{"id":8,"depto":"Itapua","risk_score":0.165,"risk_level":"low","forest_loss_pct_2020_2024":0.5,"driver":"urban/agriculture","annual_precip_mm":1300,"spi_2024":-0.2,"drought_freq":0.18,"is_valid_geometry":true}},{"type":"Feature","geometry":{"type":"MultiPolygon","coordinates":[[[[-57.09,-26.38],[-57.04,-26.41],[-56.97,-26.45],[-56.95,-26.48],[-56.88,-26.49],[-56.88,-26.52],[-56.85,-26.54],[-56.83,-26.54],[-56.82,-26.55],[-56.82,-26.57],[-56.81,-26.6],[-56.8,-26.62],[-56.77,-26.64],[-56.74,-26.62],[-56.73,-26.64],[-56.72,-26.65],[-56.71,-26.65],[-56.7,-26.65],[-56.7,-26.66],[-56.69,-26.65],[-56.68,-26.66],[-56.67,-26.66],[-56.66,-26.66],[-56.66,-26.67],[-56.66,-26.66],[-56.64,-26.66],[-56.64,-26.67],[-56.64,-26.68],[-56.65,-26.68],[-56.65,-26.68],[-56.65,-26.69],[-56.65,-26.69],[-56.65,-26.7],[-56.65,-26.71],[-56.66,-26.71],[-56.66,-26.72],[-56.66,-26.72],[-56.66,-26.73],[-56.65,-27.17],[-56.68,-27.2],[-56.68,-27.2],[-56.69,-27.2],[-56.69,-27.21],[-56.69,-27.21],[-56.7,-27.21],[-56.69,-27.22],[-56.69,-27.22],[-56.7,-27.23],[-56.7,-27.22],[-56.7,-27.23],[-56.71,-27.23],[-56.71,-27.24],[-56.71,-27.24],[-56.7,-27.24],[-56.7,-27.24],[-56.7,-27.25],[-56.7,-27.25],[-56.7,-27.25],[-56.7,-27.26],[-56.69,-27.26],[-56.7,-27.27],[-56.7,-27.27],[-56.69,-27.27],[-56.69,-27.28],[-56.68,-27.28],[-56.68,-27.28],[-56.68,-27.29],[-56.67,-27.29],[-56.67,-27.29],[-56.67,-27.3],[-56.67,-27.3],[-56.67,-27.3],[-56.67,-27.3],[-56.67,-27.31],[-56.67,-27.31],[-56.67,-27.32],[-56.67,-27.32],[-56.67,-27.33],[-56.68,-27.34],[-56.69,-27.36],[-56.81,-27.39],[-56.95,-27.42],[-57.02,-27.47],[-57.11,-27.48],[-57.2,-27.47],[-57.27,-27.44],[-57.72,-26.5],[-57.7,-26.43],[-57.66,-26.47],[-57.62,-26.49],[-57.56,-26.53],[-57.52,-26.55],[-57.47,-26.56],[-57.44,-26.61],[-57.38,-26.61],[-57.35,-26.61],[-57.29,-26.59],[-57.27,-26.58],[-57.25,-26.55],[-57.25,-26.49],[-57.21,-26.48],[-57.16,-26.41],[-57.1,-26.38],[-57.09,-26.38]]]]},"properties":{"id":9,"depto":"Misiones","risk_score":0.165,"risk_level":"low","forest_loss_pct_2020_2024":0.5,"driver":"urban/agriculture","annual_precip_mm":1380,"spi_2024":-0.2,"drought_freq":0.18,"is_valid_geometry":true}},{"type":"Feature","geometry":{"type":"MultiPolygon","coordinates":[[[[-57.13,-25.53],[-57.09,-25.58],[-57.06,-25.58],[-57.03,-25.59],[-57.01,-25.58],[-56.99,-25.57],[-56.97,-25.57],[-56.98,-25.58],[-56.99,-25.59],[-56.94,-25.59],[-56.93,-25.6],[-56.92,-25.59],[-56.91,-25.6],[-56.92,-25.61],[-56.91,-25.66],[-56.79,-25.63],[-56.77,-25.64],[-56.77,-25.64],[-56.75,-25.65],[-56.74,-25.66],[-56.73,-25.66],[-56.72,-25.66],[-56.71,-25.67],[-56.7,-25.68],[-56.7,-25.69],[-56.7,-25.7],[-56.68,-25.7],[-56.66,-25.85],[-56.65,-25.87],[-56.64,-25.88],[-56.63,-25.89],[-56.63,-25.9],[-56.62,-25.9],[-56.61,-25.93],[-56.6,-25.94],[-56.58,-25.95],[-56.56,-25.97],[-56.57,-25.98],[-56.58,-25.98],[-56.58,-25.98],[-56.59,-25.98],[-56.59,-25.98],[-56.74,-25.96],[-56.73,-25.99],[-56.71,-26.02],[-56.71,-26.03],[-56.7,-26.04],[-56.71,-26.05],[-56.71,-26.06],[-56.71,-26.07],[-56.72,-26.08],[-56.72,-26.09],[-56.72,-26.1],[-56.71,-26.13],[-56.69,-26.15],[-56.63,-26.19],[-56.64,-26.21],[-56.67,-26.23],[-56.68,-26.25],[-56.7,-26.29],[-56.72,-26.32],[-56.73,-26.35],[-56.75,-26.37],[-56.76,-26.39],[-56.76,-26.41],[-56.79,-26.43],[-56.79,-26.47],[-56.83,-26.51],[-56.85,-26.54],[-56.88,-26.49],[-56.98,-26.43],[-57.12,-26.38],[-57.22,-26.5],[-57.27,-26.57],[-57.35,-26.61],[-57.45,-26.58],[-57.55,-26.54],[-57.65,-26.47],[-57.74,-26.39],[-57.74,-26.36],[-57.71,-26.38],[-57.69,-26.36],[-57.69,-26.34],[-57.68,-26.33],[-57.68,-26.32],[-57.66,-26.3],[-57.66,-26.29],[-57.65,-26.29],[-57.65,-26.28],[-57.65,-26.27],[-57.63,-26.26],[-57.61,-26.23],[-57.54,-26.18],[-57.47,-25.75],[-57.43,-25.7],[-57.43,-25.7],[-57.42,-25.68],[-57.4,-25.63],[-57.38,-25.64],[-57.37,-25.62],[-57.17,-25.42],[-57.13,-25.53]]]]},"properties":{"id":10,"depto":"Paraguari","risk_score":0.165,"risk_level":"low","forest_loss_pct_2020_2024":0.5,"driver":"urban/agriculture","annual_precip_mm":1300,"spi_2024":-0.2,"drought_freq":0.18,"is_valid_geometry":true}},{"type":"Feature","geometry":{"type":"MultiPolygon","coordinates":[[[[-55.12,-24.53],[-54.95,-24.57],[-54.94,-24.57],[-54.93,-24.57],[-54.92,-24.57],[-54.91,-24.58],[-54.91,-24.59],[-54.91,-24.61],[-54.89,-24.62],[-54.89,-24.63],[-54.87,-24.64],[-54.86,-24.65],[-54.84,-24.65],[-54.84,-24.66],[-54.83,-24.67],[-54.81,-24.67],[-54.8,-24.67],[-54.78,-24.66],[-54.77,-24.66],[-54.75,-24.66],[-54.73,-24.65],[-54.72,-24.68],[-54.7,-24.68],[-54.68,-24.68],[-54.67,-24.67],[-54.64,-24.69],[-54.65,-24.71],[-54.59,-25.63],[-54.69,-26.23],[-54.78,-26.24],[-54.85,-26.19],[-54.89,-26.2],[-54.91,-26.2],[-54.92,-26.23],[-54.94,-26.21],[-54.95,-26.23],[-54.98,-26.24],[-55.0,-26.23],[-55.04,-26.23],[-55.06,-26.23],[-55.11,-26.22],[-55.16,-26.2],[-55.29,-26.19],[-55.3,-26.17],[-55.32,-26.14],[-55.31,-26.12],[-55.28,-26.09],[-55.26,-26.04],[-55.33,-26.02],[-55.36,-26.0],[-55.38,-26.01],[-55.39,-26.03],[-55.4,-26.01],[-55.42,-26.0],[-55.45,-26.0],[-55.48,-25.99],[-55.52,-25.99],[-55.55,-26.0],[-55.52,-25.92],[-55.52,-25.88],[-55.52,-25.86],[-55.52,-25.83],[-55.52,-25.8],[-55.5,-25.77],[-55.48,-25.75],[-55.47,-25.72],[-55.47,-25.7],[-55.47,-25.68],[-55.44,-25.66],[-55.42,-25.64],[-55.4,-25.62],[-55.42,-25.57],[-54.94,-25.34],[-54.97,-25.26],[-55.02,-25.23],[-55.05,-25.17],[-55.09,-25.14],[-55.14,-25.1],[-55.19,-25.05],[-55.23,-25.05],[-55.28,-25.02],[-55.31,-24.98],[-55.33,-24.93],[-55.33,-24.88],[-55.35,-24.85],[-55.34,-24.83],[-55.34,-24.81],[-55.33,-24.79],[-55.32,-24.77],[-55.32,-24.76],[-55.31,-24.74],[-55.3,-24.72],[-55.31,-24.7],[-55.32,-24.69],[-55.31,-24.67],[-55.3,-24.65],[-55.3,-24.64],[-55.3,-24.62],[-55.3,-24.58],[-55.26,-24.52],[-55.16,-24.52],[-55.12,-24.53]]]]},"properties":{"id":11,"depto":"Alto Parana","risk_score":0.165,"risk_level":"low","forest_loss_pct_2020_2024":0.5,"driver":"urban/agriculture","annual_precip_mm":1300,"spi_2024":-0.2,"drought_freq":0.18,"is_valid_geometry":true}},{"type":"Feature","geometry":{"type":"MultiPolygon","coordinates":[[[[-57.33,-25.25],[-57.28,-25.36],[-57.27,-25.36],[-57.26,-25.36],[-57.23,-25.37],[-57.32,-25.52],[-57.37,-25.62],[-57.38,-25.64],[-57.4,-25.63],[-57.42,-25.65],[-57.42,-25.69],[-57.43,-25.7],[-57.44,-25.71],[-57.46,-25.78],[-57.54,-25.95],[-57.61,-25.87],[-57.6,-25.87],[-57.61,-25.87],[-57.62,-25.88],[-57.63,-25.88],[-57.63,-25.87],[-57.63,-25.87],[-57.64,-25.86],[-57.63,-25.86],[-57.65,-25.86],[-57.65,-25.86],[-57.66,-25.86],[-57.67,-25.86],[-57.68,-25.86],[-57.69,-25.86],[-57.69,-25.86],[-57.69,-25.85],[-57.69,-25.85],[-57.7,-25.85],[-57.71,-25.85],[-57.72,-25.85],[-57.73,-25.85],[-57.73,-25.83],[-57.74,-25.84],[-57.74,-25.84],[-57.75,-25.83],[-57.74,-25.83],[-57.74,-25.82],[-57.74,-25.82],[-57.74,-25.81],[-57.74,-25.8],[-57.75,-25.8],[-57.75,-25.79],[-57.75,-25.79],[-57.75,-25.79],[-57.74,-25.78],[-57.74,-25.77],[-57.75,-25.77],[-57.76,-25.77],[-57.76,-25.78],[-57.76,-25.78],[-57.76,-25.79],[-57.77,-25.8],[-57.79,-25.81],[-57.79,-25.83],[-57.79,-25.76],[-57.67,-25.66],[-57.58,-25.52],[-57.63,-25.35],[-57.54,-25.3],[-57.54,-25.29],[-57.54,-25.29],[-57.54,-25.28],[-57.54,-25.28],[-57.53,-25.25],[-57.55,-25.23],[-57.51,-25.1],[-57.47,-25.12],[-57.45,-25.13],[-57.45,-25.13],[-57.44,-25.13],[-57.44,-25.13],[-57.43,-25.13],[-57.43,-25.14],[-57.43,-25.14],[-57.42,-25.15],[-57.42,-25.15],[-57.41,-25.16],[-57.4,-25.17],[-57.4,-25.17],[-57.4,-25.18],[-57.4,-25.18],[-57.4,-25.19],[-57.4,-25.19],[-57.39,-25.2],[-57.38,-25.2],[-57.38,-25.2],[-57.37,-25.2],[-57.37,-25.21],[-57.37,-25.21],[-57.36,-25.22],[-57.35,-25.22],[-57.35,-25.23],[-57.34,-25.23],[-57.34,-25.24],[-57.33,-25.24],[-57.33,-25.25]]]]},"properties":{"id":12,"depto":"Central","risk_score":0.15,"risk_level":"low","forest_loss_pct_2020_2024":0.5,"driver":"urban/agriculture","annual_precip_mm":1340,"spi_2024":-0.2,"drought_freq":0.15,"is_valid_geometry":true}},{"type":"Feature","geometry":{"type":"MultiPolygon","coordinates":[[[[-57.75,-25.77],[-57.74,-25.77],[-57.74,-25.78],[-57.74,-25.78],[-57.75,-25.78],[-57.75,-25.79],[-57.75,-25.79],[-57.75,-25.8],[-57.74,-25.8],[-57.74,-25.81],[-57.74,-25.81],[-57.74,-25.82],[-57.74,-25.82],[-57.74,-25.82],[-57.74,-25.83],[-57.75,-25.83],[-57.74,-25.83],[-57.74,-25.84],[-57.73,-25.84],[-57.73,-25.83],[-57.73,-25.84],[-57.72,-25.85],[-57.72,-25.85],[-57.71,-25.85],[-57.7,-25.84],[-57.7,-25.85],[-57.69,-25.85],[-57.69,-25.85],[-57.69,-25.86],[-57.69,-25.86],[-57.69,-25.86],[-57.68,-25.86],[-57.67,-25.86],[-57.66,-25.86],[-57.66,-25.86],[-57.65,-25.86],[-57.64,-25.86],[-57.63,-25.86],[-57.64,-25.86],[-57.63,-25.86],[-57.63,-25.86],[-57.63,-25.87],[-57.63,-25.87],[-57.62,-25.88],[-57.61,-25.87],[-57.61,-25.87],[-57.6,-25.87],[-57.6,-25.87],[-57.61,-25.89],[-57.52,-25.99],[-57.58,-26.19],[-57.61,-26.23],[-57.62,-26.25],[-57.63,-26.26],[-57.64,-26.27],[-57.66,-26.28],[-57.65,-26.28],[-57.65,-26.29],[-57.65,-26.29],[-57.66,-26.29],[-57.67,-26.3],[-57.67,-26.31],[-57.68,-26.32],[-57.68,-26.33],[-57.69,-26.34],[-57.69,-26.35],[-57.69,-26.36],[-57.7,-26.37],[-57.72,-26.37],[-57.73,-26.36],[-57.73,-26.37],[-57.35,-27.42],[-57.5,-27.44],[-57.84,-27.3],[-58.11,-27.27],[-58.27,-27.26],[-58.39,-27.28],[-58.6,-27.3],[-58.66,-27.14],[-58.51,-27.02],[-58.36,-26.82],[-58.25,-26.75],[-58.26,-26.67],[-58.22,-26.54],[-58.21,-26.42],[-58.16,-26.32],[-58.11,-26.24],[-58.12,-26.15],[-57.93,-26.05],[-57.88,-25.97],[-57.85,-25.92],[-57.85,-25.85],[-57.79,-25.84],[-57.79,-25.82],[-57.79,-25.8],[-57.77,-25.8],[-57.76,-25.79],[-57.76,-25.78],[-57.76,-25.78],[-57.76,-25.78],[-57.76,-25.77],[-57.75,-25.77]]]]},"properties":{"id":13,"depto":"\u00d1eembucu","risk_score":0.165,"risk_level":"low","forest_loss_pct_2020_2024":0.5,"driver":"urban/agriculture","annual_precip_mm":1300,"spi_2024":-0.2,"drought_freq":0.18,"is_valid_geometry":true}},{"type":"Feature","geometry":{"type":"MultiPolygon","coordinates":[[[[-56.39,-22.08],[-56.39,-22.1],[-56.37,-22.12],[-56.37,-22.16],[-56.35,-22.18],[-56.33,-22.21],[-56.29,-22.22],[-56.27,-22.24],[-56.23,-22.25],[-56.21,-22.28],[-56.18,-22.28],[-56.16,-22.29],[-56.13,-22.28],[-56.1,-22.28],[-56.08,-22.29],[-56.06,-22.28],[-56.03,-22.29],[-56.0,-22.29],[-55.98,-22.28],[-55.95,-22.29],[-55.9,-22.29],[-55.66,-22.88],[-55.55,-23.55],[-55.58,-23.59],[-55.58,-23.62],[-55.59,-23.64],[-55.61,-23.65],[-55.65,-23.67],[-55.68,-23.67],[-55.71,-23.66],[-55.74,-23.69],[-55.76,-23.7],[-55.77,-23.73],[-55.79,-23.75],[-55.81,-23.76],[-55.83,-23.77],[-55.84,-23.77],[-55.85,-23.78],[-55.86,-23.79],[-55.86,-23.8],[-55.87,-23.8],[-55.9,-23.82],[-55.93,-23.83],[-55.95,-23.81],[-55.97,-23.82],[-56.0,-23.83],[-56.02,-23.83],[-56.02,-23.8],[-55.98,-23.75],[-55.98,-23.7],[-55.98,-23.67],[-56.05,-23.59],[-56.11,-23.6],[-56.14,-23.56],[-56.16,-23.43],[-56.16,-23.34],[-56.25,-23.32],[-56.29,-23.32],[-56.27,-23.27],[-56.24,-23.24],[-56.21,-23.22],[-56.21,-23.19],[-56.19,-23.16],[-56.18,-23.12],[-56.15,-23.11],[-56.13,-23.07],[-56.34,-22.7],[-56.39,-22.72],[-56.4,-22.75],[-56.44,-22.77],[-56.51,-22.79],[-56.55,-22.88],[-56.58,-22.91],[-56.63,-22.89],[-56.67,-22.89],[-56.71,-22.91],[-56.71,-22.86],[-56.68,-22.84],[-56.65,-22.81],[-56.66,-22.78],[-56.67,-22.76],[-56.67,-22.74],[-56.69,-22.71],[-56.69,-22.69],[-56.73,-22.65],[-56.72,-22.6],[-56.74,-22.55],[-56.72,-22.48],[-56.68,-22.43],[-56.65,-22.39],[-56.81,-22.27],[-56.75,-22.24],[-56.7,-22.22],[-56.64,-22.26],[-56.59,-22.22],[-56.55,-22.18],[-56.52,-22.13],[-56.49,-22.09],[-56.46,-22.08],[-56.43,-22.09],[-56.4,-22.08],[-56.39,-22.08]]]]},"properties":{"id":14,"depto":"Amambay","risk_score":0.46,"risk_level":"moderate","forest_loss_pct_2020_2024":5.4,"driver":"soy_frontier","annual_precip_mm":1050,"spi_2024":-0.4,"drought_freq":0.3,"is_valid_geometry":true}},{"type":"Feature","geometry":{"type":"MultiPolygon","coordinates":[[[[-59.01,-22.15],[-57.9,-22.66],[-57.78,-23.04],[-57.46,-23.41],[-57.2,-24.24],[-57.24,-24.94],[-57.55,-25.19],[-57.68,-25.35],[-57.68,-25.33],[-57.7,-25.32],[-57.7,-25.31],[-57.7,-25.29],[-57.71,-25.28],[-57.71,-25.27],[-57.72,-25.27],[-57.73,-25.25],[-57.74,-25.24],[-57.76,-25.22],[-57.75,-25.2],[-57.76,-25.18],[-57.78,-25.15],[-57.81,-25.15],[-57.84,-25.12],[-57.85,-25.1],[-57.87,-25.08],[-57.89,-25.08],[-57.92,-25.08],[-57.96,-25.07],[-57.97,-25.08],[-58.0,-25.07],[-58.0,-25.05],[-58.02,-25.04],[-58.03,-25.04],[-58.06,-25.04],[-58.08,-25.04],[-58.09,-25.01],[-58.11,-25.01],[-58.13,-25.01],[-58.14,-24.99],[-58.15,-24.98],[-58.17,-24.97],[-58.2,-24.95],[-58.22,-24.94],[-58.23,-24.93],[-58.26,-24.94],[-58.28,-24.95],[-58.3,-24.97],[-58.31,-24.98],[-58.32,-24.99],[-58.33,-25.0],[-58.34,-25.0],[-58.35,-24.98],[-58.35,-24.97],[-58.36,-24.96],[-58.37,-24.96],[-58.39,-24.95],[-58.4,-24.94],[-58.4,-24.93],[-58.41,-24.92],[-58.43,-24.92],[-58.43,-24.91],[-58.44,-24.88],[-58.46,-24.87],[-58.48,-24.86],[-58.51,-24.85],[-58.53,-24.84],[-58.55,-24.83],[-58.59,-24.82],[-58.61,-24.83],[-58.65,-24.83],[-58.68,-24.82],[-58.71,-24.81],[-58.72,-24.78],[-58.76,-24.78],[-58.8,-24.77],[-58.82,-24.76],[-58.84,-24.74],[-58.87,-24.73],[-58.9,-24.71],[-58.93,-24.69],[-58.97,-24.67],[-58.99,-24.66],[-59.03,-24.66],[-59.05,-24.64],[-59.07,-24.63],[-59.1,-24.62],[-59.13,-24.62],[-59.15,-24.6],[-59.17,-24.58],[-59.19,-24.56],[-59.22,-24.55],[-59.24,-24.55],[-59.26,-24.52],[-59.3,-24.51],[-59.33,-24.49],[-59.36,-24.46],[-59.37,-24.43],[-59.41,-24.41],[-60.32,-24.04],[-60.68,-23.9],[-59.2,-22.15],[-59.01,-22.15]]]]},"properties":{"id":15,"depto":"Pdte. Hayes","risk_score":0.165,"risk_level":"low","forest_loss_pct_2020_2024":0.5,"driver":"urban/agriculture","annual_precip_mm":1300,"spi_2024":-0.2,"drought_freq":0.18,"is_valid_geometry":true}},{"type":"Feature","geometry":{"type":"MultiPolygon","coordinates":[[[[-61.64,-20.02],[-60.28,-23.53],[-60.79,-23.87],[-60.8,-23.87],[-60.81,-23.87],[-60.85,-23.87],[-60.87,-23.85],[-60.91,-23.83],[-60.93,-23.81],[-60.95,-23.82],[-60.99,-23.81],[-61.01,-23.78],[-61.01,-23.76],[-61.05,-23.72],[-61.07,-23.7],[-61.08,-23.67],[-61.1,-23.66],[-61.1,-23.63],[-61.09,-23.62],[-61.11,-23.6],[-61.12,-23.59],[-61.13,-23.58],[-61.16,-23.57],[-61.18,-23.55],[-61.19,-23.55],[-61.22,-23.55],[-61.23,-23.55],[-61.26,-23.52],[-61.26,-23.52],[-61.27,-23.52],[-61.29,-23.49],[-61.34,-23.47],[-61.37,-23.45],[-61.4,-23.45],[-61.43,-23.44],[-61.45,-23.43],[-61.47,-23.43],[-61.5,-23.41],[-61.52,-23.37],[-61.52,-23.35],[-61.54,-23.34],[-61.57,-23.32],[-61.58,-23.3],[-61.59,-23.3],[-61.62,-23.28],[-61.68,-23.28],[-61.7,-23.25],[-61.74,-23.23],[-61.77,-23.17],[-61.79,-23.15],[-61.82,-23.13],[-61.9,-23.07],[-61.95,-23.03],[-62.0,-23.0],[-62.01,-22.95],[-62.02,-22.93],[-62.04,-22.91],[-62.06,-22.85],[-62.08,-22.84],[-62.11,-22.81],[-62.14,-22.77],[-62.16,-22.75],[-62.17,-22.71],[-62.21,-22.7],[-62.2,-22.67],[-62.21,-22.66],[-62.21,-22.65],[-62.21,-22.65],[-62.23,-22.65],[-62.22,-22.64],[-62.24,-22.65],[-62.24,-22.62],[-62.24,-22.61],[-62.25,-22.61],[-62.26,-22.61],[-62.26,-22.59],[-62.24,-22.59],[-62.25,-22.59],[-62.23,-22.57],[-62.23,-22.54],[-62.26,-22.53],[-62.27,-22.52],[-62.3,-22.52],[-62.28,-22.5],[-62.29,-22.48],[-62.3,-22.48],[-62.33,-22.48],[-62.35,-22.46],[-62.35,-22.45],[-62.37,-22.46],[-62.37,-22.48],[-62.39,-22.46],[-62.4,-22.44],[-62.41,-22.44],[-62.43,-22.43],[-62.45,-22.42],[-62.47,-22.38],[-62.53,-22.37],[-62.54,-22.35],[-62.56,-22.34],[-62.6,-22.31],[-62.63,-22.3],[-62.63,-22.27],[-61.64,-20.02]]]]},"properties":{"id":16,"depto":"Boqueron","risk_score":0.165,"risk_level":"low","forest_loss_pct_2020_2024":0.5,"driver":"urban/agriculture","annual_precip_mm":1300,"spi_2024":-0.2,"drought_freq":0.18,"is_valid_geometry":true}},{"type":"Feature","geometry":{"type":"MultiPolygon","coordinates":[[[[-58.17,-19.83],[-58.17,-19.84],[-58.18,-19.85],[-58.19,-19.85],[-58.2,-19.86],[-58.2,-19.86],[-58.2,-19.87],[-58.21,-19.88],[-58.2,-19.89],[-58.2,-19.9],[-58.2,-19.91],[-58.2,-19.93],[-58.2,-19.94],[-58.21,-19.95],[-58.21,-19.95],[-58.2,-19.96],[-58.19,-19.96],[-58.19,-19.98],[-58.18,-19.99],[-58.18,-20.0],[-58.18,-20.01],[-58.18,-20.02],[-58.17,-20.04],[-58.16,-20.05],[-58.16,-20.06],[-58.16,-20.08],[-58.15,-20.09],[-58.14,-20.12],[-58.16,-20.14],[-58.17,-20.17],[-58.15,-20.18],[-58.12,-20.19],[-58.15,-20.21],[-58.16,-20.23],[-58.16,-20.24],[-58.16,-20.25],[-58.16,-20.27],[-58.13,-20.26],[-58.1,-20.26],[-58.09,-20.29],[-58.1,-20.33],[-58.09,-20.36],[-58.07,-20.39],[-58.05,-20.4],[-58.02,-20.41],[-58.0,-20.45],[-58.02,-20.48],[-58.01,-20.53],[-58.0,-20.58],[-58.01,-20.61],[-57.99,-20.63],[-57.97,-20.66],[-57.99,-20.69],[-57.96,-20.71],[-57.95,-20.69],[-57.92,-20.67],[-57.89,-20.7],[-57.86,-20.75],[-57.9,-20.75],[-57.95,-20.77],[-57.95,-20.8],[-57.93,-20.8],[-57.9,-20.79],[-57.87,-20.81],[-57.88,-20.86],[-57.91,-20.88],[-57.93,-20.9],[-57.91,-20.9],[-57.89,-20.91],[-57.88,-20.93],[-57.85,-20.95],[-57.82,-20.97],[-57.84,-21.0],[-57.87,-21.04],[-57.87,-21.05],[-57.85,-21.09],[-57.86,-21.12],[-57.86,-21.16],[-57.85,-21.21],[-57.87,-21.24],[-57.91,-21.27],[-57.91,-21.29],[-57.89,-21.31],[-57.86,-21.32],[-57.86,-21.34],[-57.91,-21.43],[-57.97,-21.54],[-57.94,-21.65],[-57.9,-21.7],[-57.95,-21.74],[-57.91,-21.78],[-57.96,-21.84],[-57.92,-21.89],[-57.94,-21.92],[-57.97,-21.99],[-58.01,-22.05],[-57.96,-22.13],[-57.96,-22.26],[-57.88,-22.32],[-59.72,-21.34],[-58.17,-19.83]]]]},"properties":{"id":17,"depto":"Alto Paraguay","risk_score":0.765,"risk_level":"high","forest_loss_pct_2020_2024":9.8,"driver":"agriculture_frontier","annual_precip_mm":620,"spi_2024":-1.5,"drought_freq":0.65,"is_valid_geometry":true}},{"type":"Feature","geometry":{"type":"MultiPolygon","coordinates":[[[[-55.53,-23.56],[-55.13,-23.98],[-54.6,-23.85],[-54.29,-24.03],[-54.64,-24.7],[-54.65,-24.69],[-54.65,-24.68],[-54.66,-24.67],[-54.68,-24.67],[-54.69,-24.68],[-54.7,-24.68],[-54.71,-24.68],[-54.73,-24.66],[-54.73,-24.65],[-54.74,-24.66],[-54.75,-24.66],[-54.77,-24.65],[-54.78,-24.66],[-54.79,-24.67],[-54.8,-24.67],[-54.81,-24.67],[-54.82,-24.66],[-54.83,-24.67],[-54.84,-24.66],[-54.84,-24.66],[-54.85,-24.65],[-54.86,-24.65],[-54.87,-24.64],[-54.88,-24.64],[-54.89,-24.63],[-54.89,-24.62],[-54.9,-24.61],[-54.9,-24.6],[-54.91,-24.59],[-54.91,-24.58],[-54.91,-24.57],[-54.92,-24.57],[-54.93,-24.57],[-54.94,-24.57],[-54.94,-24.57],[-54.95,-24.57],[-54.96,-24.57],[-55.15,-24.48],[-55.76,-24.78],[-55.84,-24.76],[-55.88,-24.67],[-55.91,-24.66],[-55.93,-24.63],[-55.94,-24.59],[-55.94,-24.57],[-55.96,-24.56],[-55.98,-24.54],[-55.99,-24.53],[-56.0,-24.5],[-56.02,-24.47],[-56.03,-24.44],[-56.05,-24.42],[-56.06,-24.4],[-56.11,-24.4],[-56.12,-24.37],[-56.13,-24.34],[-56.13,-24.32],[-56.13,-24.31],[-56.16,-24.29],[-56.16,-24.26],[-56.17,-24.24],[-56.16,-24.22],[-56.15,-24.2],[-56.15,-24.18],[-56.16,-24.16],[-56.11,-24.1],[-56.05,-24.05],[-56.03,-23.82],[-56.02,-23.83],[-55.99,-23.83],[-55.96,-23.82],[-55.95,-23.82],[-55.93,-23.83],[-55.9,-23.82],[-55.88,-23.81],[-55.87,-23.8],[-55.86,-23.79],[-55.86,-23.79],[-55.85,-23.78],[-55.84,-23.77],[-55.83,-23.77],[-55.82,-23.76],[-55.8,-23.75],[-55.78,-23.74],[-55.77,-23.73],[-55.76,-23.7],[-55.74,-23.68],[-55.71,-23.66],[-55.68,-23.67],[-55.65,-23.67],[-55.62,-23.65],[-55.6,-23.65],[-55.58,-23.63],[-55.58,-23.61],[-55.57,-23.58],[-55.55,-23.54],[-55.53,-23.56]]]]},"properties":{"id":18,"depto":"Canindeyu","risk_score":0.165,"risk_level":"low","forest_loss_pct_2020_2024":0.5,"driver":"urban/agriculture","annual_precip_mm":1300,"spi_2024":-0.2,"drought_freq":0.18,"is_valid_geometry":true}}]}