{
  "type": "FeatureCollection",
  "metadata": {
    "source": "Derived from OSM water features + R\u00edo Paraguay/Paran\u00e1 floodplain references",
    "count": 5,
    "note": "Approximate zones \u2014 for visualization only.",
    "license": "Public domain",
    "as_of_utc": "2026-07-11T14:57:31.303388+00:00"
  },
  "features": [
    {
      "type": "Feature",
      "geometry": {
        "type": "Polygon",
        "coordinates": [
          [
            [
              -58.5,
              -25.5
            ],
            [
              -57.0,
              -25.5
            ],
            [
              -57.0,
              -24.0
            ],
            [
              -58.5,
              -24.0
            ],
            [
              -58.5,
              -25.5
            ]
          ]
        ]
      },
      "properties": {
        "id": 0,
        "name": "R\u00edo Paraguay floodplain",
        "risk": "high",
        "freq": "5yr",
        "seasonal": false
      }
    },
    {
      "type": "Feature",
      "geometry": {
        "type": "Polygon",
        "coordinates": [
          [
            [
              -57.65,
              -25.32
            ],
            [
              -57.55,
              -25.32
            ],
            [
              -57.55,
              -25.25
            ],
            [
              -57.65,
              -25.25
            ],
            [
              -57.65,
              -25.32
            ]
          ]
        ]
      },
      "properties": {
        "id": 1,
        "name": "Asunci\u00f3n costanera",
        "risk": "very_high",
        "freq": "2yr",
        "seasonal": false
      }
    },
    {
      "type": "Feature",
      "geometry": {
        "type": "Polygon",
        "coordinates": [
          [
            [
              -61.0,
              -23.5
            ],
            [
              -58.0,
              -23.5
            ],
            [
              -58.0,
              -20.0
            ],
            [
              -61.0,
              -20.0
            ],
            [
              -61.0,
              -23.5
            ]
          ]
        ]
      },
      "properties": {
        "id": 2,
        "name": "Gran Chaco lowlands",
        "risk": "moderate",
        "freq": "10yr",
        "seasonal": true
      }
    },
    {
      "type": "Feature",
      "geometry": {
        "type": "Polygon",
        "coordinates": [
          [
            [
              -55.0,
              -27.0
            ],
            [
              -54.0,
              -27.0
            ],
            [
              -54.0,
              -25.5
            ],
            [
              -55.0,
              -25.5
            ],
            [
              -55.0,
              -27.0
            ]
          ]
        ]
      },
      "properties": {
        "id": 3,
        "name": "R\u00edo Paran\u00e1 floodplain",
        "risk": "moderate",
        "freq": "10yr",
        "seasonal": false
      }
    },
    {
      "type": "Feature",
      "geometry": {
        "type": "Polygon",
        "coordinates": [
          [
            [
              -59.5,
              -27.0
            ],
            [
              -57.5,
              -27.0
            ],
            [
              -57.5,
              -25.5
            ],
            [
              -59.5,
              -25.5
            ],
            [
              -59.5,
              -27.0
            ]
          ]
        ]
      },
      "properties": {
        "id": 4,
        "name": "\u00d1eembuc\u00fa wetlands",
        "risk": "very_high",
        "freq": "3yr",
        "seasonal": false
      }
    }
  ]
}