{"type":"FeatureCollection","metadata":{"source":"Compiled from public sources (IWGIA Indigenous World, AVINA, INDI references)","count":10,"note":"Approximate bboxes \u2014 for visualization only. Not legal boundaries.","license":"Public knowledge \u2014 open for civic use","as_of_utc":"2026-07-11T15:44:21.428292+00:00"},"features":[{"type":"Feature","geometry":{"type":"Polygon","coordinates":[[[-60.5,-22.5],[-59.5,-22.5],[-59.5,-21.5],[-60.5,-21.5],[-60.5,-22.5]]]},"properties":{"id":0,"name":"Ayoreo-Totobiegosode","people":"Ayoreo","status":"Voluntary isolation","area_km2":5500,"source":"IWGIA + AVINA + INDI public references","license":"Public knowledge","area_km2_computed":11464.0,"area_km2_approx":5500,"area_note":"Polygon is an approximate bounding box, not legal boundary. Real boundaries are recognized by INDI."}},{"type":"Feature","geometry":{"type":"Polygon","coordinates":[[[-60.8,-23.5],[-59.5,-23.5],[-59.5,-22.5],[-60.8,-22.5],[-60.8,-23.5]]]},"properties":{"id":1,"name":"Xakmaraq Kelygmaky (Nivacl\u00e9)","people":"Nivacl\u00e9","status":"Permanent settlement","area_km2":2400,"source":"IWGIA + AVINA + INDI public references","license":"Public knowledge","area_km2_computed":14796.0,"area_km2_approx":2400,"area_note":"Polygon is an approximate bounding box, not legal boundary. Real boundaries are recognized by INDI."}},{"type":"Feature","geometry":{"type":"Polygon","coordinates":[[[-60.0,-22.0],[-59.0,-22.0],[-59.0,-21.0],[-60.0,-21.0],[-60.0,-22.0]]]},"properties":{"id":2,"name":"La Patria (Chulupi/Nivacl\u00e9)","people":"Nivacl\u00e9, Manjuy","status":"Permanent settlement","area_km2":1800,"source":"IWGIA + AVINA + INDI public references","license":"Public knowledge","area_km2_computed":11504.0,"area_km2_approx":1800,"area_note":"Polygon is an approximate bounding box, not legal boundary. Real boundaries are recognized by INDI."}},{"type":"Feature","geometry":{"type":"Polygon","coordinates":[[[-60.8,-23.2],[-60.4,-23.2],[-60.4,-22.8],[-60.8,-22.8],[-60.8,-23.2]]]},"properties":{"id":3,"name":"Santa Teresita (Nivacl\u00e9)","people":"Nivacl\u00e9","status":"Permanent settlement","area_km2":850,"source":"IWGIA + AVINA + INDI public references","license":"Public knowledge","area_km2_computed":1821.0,"area_km2_approx":850,"area_note":"Polygon is an approximate bounding box, not legal boundary. Real boundaries are recognized by INDI."}},{"type":"Feature","geometry":{"type":"Polygon","coordinates":[[[-60.0,-21.5],[-59.4,-21.5],[-59.4,-21.0],[-60.0,-21.0],[-60.0,-21.5]]]},"properties":{"id":4,"name":"Carmelo Peralta (Enlhet)","people":"Enlhet Norte","status":"Permanent settlement","area_km2":720,"source":"IWGIA + AVINA + INDI public references","license":"Public knowledge","area_km2_computed":3457.0,"area_km2_approx":720,"area_note":"Polygon is an approximate bounding box, not legal boundary. Real boundaries are recognized by INDI."}},{"type":"Feature","geometry":{"type":"Polygon","coordinates":[[[-59.6,-22.8],[-59.2,-22.8],[-59.2,-22.4],[-59.6,-22.4],[-59.6,-22.8]]]},"properties":{"id":5,"name":"Yalve Sanga (Enlhet)","people":"Enlhet","status":"Permanent settlement","area_km2":540,"source":"IWGIA + AVINA + INDI public references","license":"Public knowledge","area_km2_computed":1826.0,"area_km2_approx":540,"area_note":"Polygon is an approximate bounding box, not legal boundary. Real boundaries are recognized by INDI."}},{"type":"Feature","geometry":{"type":"Polygon","coordinates":[[[-59.5,-20.4],[-58.8,-20.4],[-58.8,-20.0],[-59.5,-20.0],[-59.5,-20.4]]]},"properties":{"id":6,"name":"Bah\u00eda Negra (Ayoreo)","people":"Ayoreo, \u00d1andeva","status":"Permanent settlement","area_km2":420,"source":"IWGIA + AVINA + INDI public references","license":"Public knowledge","area_km2_computed":3249.0,"area_km2_approx":420,"area_note":"Polygon is an approximate bounding box, not legal boundary. Real boundaries are recognized by INDI."}},{"type":"Feature","geometry":{"type":"Polygon","coordinates":[[[-56.5,-23.0],[-56.0,-23.0],[-56.0,-22.5],[-56.5,-22.5],[-56.5,-23.0]]]},"properties":{"id":7,"name":"Yby Ya\u00fa (Guaran\u00ed)","people":"Pa\u0129 Tavyter\u00e3","status":"Permanent settlement","area_km2":380,"source":"IWGIA + AVINA + INDI public references","license":"Public knowledge","area_km2_computed":2851.0,"area_km2_approx":380,"area_note":"Polygon is an approximate bounding box, not legal boundary. Real boundaries are recognized by INDI."}},{"type":"Feature","geometry":{"type":"Polygon","coordinates":[[[-55.5,-24.5],[-54.8,-24.5],[-54.8,-24.0],[-55.5,-24.0],[-55.5,-24.5]]]},"properties":{"id":8,"name":"Mby\u00e1 Guaran\u00ed Itakyry","people":"Mby\u00e1 Guaran\u00ed","status":"Permanent settlement","area_km2":240,"source":"IWGIA + AVINA + INDI public references","license":"Public knowledge","area_km2_computed":3946.0,"area_km2_approx":240,"area_note":"Polygon is an approximate bounding box, not legal boundary. Real boundaries are recognized by INDI."}},{"type":"Feature","geometry":{"type":"Polygon","coordinates":[[[-60.0,-22.5],[-59.6,-22.5],[-59.6,-22.0],[-60.0,-22.0],[-60.0,-22.5]]]},"properties":{"id":9,"name":"Angait\u00e9 - Filadelfia","people":"Angait\u00e9","status":"Permanent settlement","area_km2":380,"source":"IWGIA + AVINA + INDI public references","license":"Public knowledge","area_km2_computed":2289.0,"area_km2_approx":380,"area_note":"Polygon is an approximate bounding box, not legal boundary. Real boundaries are recognized by INDI."}}]}