{
  "type": "FeatureCollection",
  "features": [
    {
      "type": "Feature",
      "geometry": {
        "type": "Point",
        "coordinates": [
          -57.564581881944335,
          -25.282497530589794
        ]
      },
      "properties": {
        "id": "ic_160779219d2a",
        "source": "infocasas",
        "source_id": "191149182",
        "source_url": "https://www.infocasas.com.py/departamento-en-venta-a-metros-del-shopping-del-sol/191149182",
        "scraped_at_utc": "2026-08-01T15:07:43.557020+00:00",
        "title": "Departamento En Venta A Metros Del Shopping Del Sol",
        "address": null,
        "depto": null,
        "bedrooms": 1,
        "price_pyg": 975000000,
        "price_usd": 130000,
        "area_ha": null,
        "$/ha": null,
        "price_band_vs_anchors": null,
        "district": null,
        "departamento": null,
        "attrs": {}
      }
    },
    {
      "type": "Feature",
      "geometry": {
        "type": "Point",
        "coordinates": [
          -57.58551789999999,
          -25.2977248
        ]
      },
      "properties": {
        "id": "ic_50785bb72578",
        "source": "infocasas",
        "source_id": "191728608",
        "source_url": "https://www.infocasas.com.py/departamento-de-3-dormitorios-con-2-cocheras-en-venta-en-recoleta-/191728608",
        "scraped_at_utc": "2026-08-01T15:07:43.571479+00:00",
        "title": "Departamento de 3 Dormitorios con 2 cocheras en VENTA en Recoleta ! ",
        "address": null,
        "depto": null,
        "bedrooms": 3,
        "price_pyg": 1500000000,
        "price_usd": 200000,
        "area_ha": 0.015,
        "$/ha": 13333333.333333334,
        "price_band_vs_anchors": null,
        "district": null,
        "departamento": null,
        "attrs": {}
      }
    },
    {
      "type": "Feature",
      "geometry": {
        "type": "Point",
        "coordinates": [
          -57.56626989999999,
          -25.2678523
        ]
      },
      "properties": {
        "id": "ic_d9e1bd9ac01c",
        "source": "infocasas",
        "source_id": "190989371",
        "source_url": "https://www.infocasas.com.py/departamento-de-2-habitaciones-en-venta-con-renta-activa-en-barrio-mburukuja/190989371",
        "scraped_at_utc": "2026-08-01T15:07:43.582358+00:00",
        "title": "Departamento de 2 habitaciones en venta con renta activa. En Barrio Mburukuja",
        "address": null,
        "depto": "Central",
        "bedrooms": 2,
        "price_pyg": 1042500000,
        "price_usd": 139000,
        "area_ha": 2.0,
        "$/ha": 69500.0,
        "price_band_vs_anchors": null,
        "district": null,
        "departamento": null,
        "attrs": {}
      }
    },
    {
      "type": "Feature",
      "geometry": {
        "type": "Point",
        "coordinates": [
          -57.561060857559674,
          -25.283930969170886
        ]
      },
      "properties": {
        "id": "ic_a4750504aa31",
        "source": "infocasas",
        "source_id": "191177331",
        "source_url": "https://www.infocasas.com.py/en-venta-hermoso-departamento-zona-shopping-la-galeria/191177331",
        "scraped_at_utc": "2026-08-01T15:07:43.593188+00:00",
        "title": "En Venta Hermoso Departamento zona shopping la Galeria.",
        "address": null,
        "depto": null,
        "bedrooms": 1,
        "price_pyg": 787500000,
        "price_usd": 105000,
        "area_ha": 0.005,
        "$/ha": 21000000.0,
        "price_band_vs_anchors": null,
        "district": null,
        "departamento": null,
        "attrs": {}
      }
    },
    {
      "type": "Feature",
      "geometry": {
        "type": "Point",
        "coordinates": [
          -57.573693531941565,
          -25.2695265442961
        ]
      },
      "properties": {
        "id": "ic_61b6cad2cdd3",
        "source": "infocasas",
        "source_id": "193989294",
        "source_url": "https://www.infocasas.com.py/departamento-de-3-habitaciones-en-venta-totalmente-a-estrenar-/193989294",
        "scraped_at_utc": "2026-08-01T15:07:43.604093+00:00",
        "title": "Departamento de 3 habitaciones en venta totalmente a estrenar!! ",
        "address": null,
        "depto": "Central",
        "bedrooms": 3,
        "price_pyg": 1732777500,
        "price_usd": 231037,
        "area_ha": 3.0,
        "$/ha": 77012.33333333333,
        "price_band_vs_anchors": null,
        "district": null,
        "departamento": null,
        "attrs": {}
      }
    },
    {
      "type": "Feature",
      "geometry": {
        "type": "Point",
        "coordinates": [
          -57.55752134088954,
          -25.28513585975308
        ]
      },
      "properties": {
        "id": "ic_4cd694f0fa24",
        "source": "infocasas",
        "source_id": "192113526",
        "source_url": "https://www.infocasas.com.py/departamento-en-venta-sobre-santa-teresa-/192113526",
        "scraped_at_utc": "2026-08-01T15:07:43.620510+00:00",
        "title": "Departamento en VENTA sobre santa teresa ! ",
        "address": null,
        "depto": null,
        "bedrooms": 2,
        "price_pyg": 1912500000,
        "price_usd": 255000,
        "area_ha": 0.0093,
        "$/ha": 27419354.83870968,
        "price_band_vs_anchors": null,
        "district": null,
        "departamento": null,
        "attrs": {}
      }
    },
    {
      "type": "Feature",
      "geometry": {
        "type": "Point",
        "coordinates": [
          -57.55841835817319,
          -25.2841992851318
        ]
      },
      "properties": {
        "id": "ic_8fb9cf28aa88",
        "source": "infocasas",
        "source_id": "191149137",
        "source_url": "https://www.infocasas.com.py/departamento-finamente-amoblado-sobre-santa-teresa/191149137",
        "scraped_at_utc": "2026-08-01T15:07:43.630868+00:00",
        "title": "Departamento finamente Amoblado sobre Santa Teresa.",
        "address": null,
        "depto": null,
        "bedrooms": 1,
        "price_pyg": 1087500000,
        "price_usd": 145000,
        "area_ha": null,
        "$/ha": null,
        "price_band_vs_anchors": null,
        "district": null,
        "departamento": null,
        "attrs": {}
      }
    },
    {
      "type": "Feature",
      "geometry": {
        "type": "Point",
        "coordinates": [
          -57.57055650599784,
          -25.275301764782718
        ]
      },
      "properties": {
        "id": "ic_08ae235ab37d",
        "source": "infocasas",
        "source_id": "191517949",
        "source_url": "https://www.infocasas.com.py/amplio-departamento-en-venta-a-pasos-del-eje-corporativo/191517949",
        "scraped_at_utc": "2026-08-01T15:07:43.642500+00:00",
        "title": "Amplio Departamento En Venta A Pasos Del Eje Corporativo!",
        "address": null,
        "depto": null,
        "bedrooms": 2,
        "price_pyg": 1650000000,
        "price_usd": 220000,
        "area_ha": 0.0105,
        "$/ha": 20952380.95238095,
        "price_band_vs_anchors": null,
        "district": null,
        "departamento": null,
        "attrs": {}
      }
    },
    {
      "type": "Feature",
      "geometry": {
        "type": "Point",
        "coordinates": [
          -57.6085829,
          -25.2995653
        ]
      },
      "properties": {
        "id": "ic_4743473fafa1",
        "source": "infocasas",
        "source_id": "192068870",
        "source_url": "https://www.infocasas.com.py/vende-departamento-en-barrio-herrera/192068870",
        "scraped_at_utc": "2026-08-01T15:07:43.655253+00:00",
        "title": "VENDE Departamento en barrio Herrera",
        "address": null,
        "depto": "Alto Paran\u00e1",
        "bedrooms": 3,
        "price_pyg": 1650000000,
        "price_usd": 220000,
        "area_ha": 0.0119,
        "$/ha": 18487394.957983192,
        "price_band_vs_anchors": null,
        "district": null,
        "departamento": null,
        "attrs": {
          "bedrooms": 3,
          "bathrooms": 3
        }
      }
    },
    {
      "type": "Feature",
      "geometry": {
        "type": "Point",
        "coordinates": [
          -57.6283802694122,
          -25.301255287173127
        ]
      },
      "properties": {
        "id": "ic_acb0312e4339",
        "source": "infocasas",
        "source_id": "192360784",
        "source_url": "https://www.infocasas.com.py/propiedad-sobre-avda-peru-terreno-c-casa-p-refaccionar-cod-1329-/192360784",
        "scraped_at_utc": "2026-08-01T15:07:43.669162+00:00",
        "title": "Propiedad Sobre Avda. Per\u00fa. Terreno C/ Casa P/ Refaccionar (C\u00f3D. 1329)  ",
        "address": null,
        "depto": null,
        "bedrooms": null,
        "price_pyg": 2625000000,
        "price_usd": 350000,
        "area_ha": 0.06,
        "$/ha": 5833333.333333334,
        "price_band_vs_anchors": null,
        "district": null,
        "departamento": null,
        "attrs": {}
      }
    },
    {
      "type": "Feature",
      "geometry": {
        "type": "Point",
        "coordinates": [
          -57.57425000000001,
          -25.26245999999999
        ]
      },
      "properties": {
        "id": "ic_c8429b0d9fcb",
        "source": "infocasas",
        "source_id": "192415684",
        "source_url": "https://www.infocasas.com.py/palacio-de-los-patos-exclusivo-departamento-de-1-dormitorio-en-venta-piso-13-r1-t2/192415684",
        "scraped_at_utc": "2026-08-01T15:07:43.681240+00:00",
        "title": "Palacio De Los Patos - Exclusivo Departamento de 1 Dormitorio en Venta - Piso 13 R1 T2",
        "address": null,
        "depto": null,
        "bedrooms": 1,
        "price_pyg": 1740000000,
        "price_usd": 232000,
        "area_ha": 0.0149,
        "$/ha": 15570469.798657717,
        "price_band_vs_anchors": null,
        "district": null,
        "departamento": null,
        "attrs": {}
      }
    },
    {
      "type": "Feature",
      "geometry": {
        "type": "Point",
        "coordinates": [
          -57.5799744,
          -25.2588502
        ]
      },
      "properties": {
        "id": "ic_f7911677368b",
        "source": "infocasas",
        "source_id": "193042809",
        "source_url": "https://www.infocasas.com.py/dpto-premium-en-pozo-edificio-the-address/193042809",
        "scraped_at_utc": "2026-08-01T15:07:43.693748+00:00",
        "title": "DPTO PREMIUM EN POZO EDIFICIO THE ADDRESS",
        "address": null,
        "depto": null,
        "bedrooms": 2,
        "price_pyg": 2475000000,
        "price_usd": 330000,
        "area_ha": 0.014255,
        "$/ha": 23149772.009821113,
        "price_band_vs_anchors": null,
        "district": null,
        "departamento": null,
        "attrs": {}
      }
    },
    {
      "type": "Feature",
      "geometry": {
        "type": "Point",
        "coordinates": [
          -57.5715924,
          -25.2841788
        ]
      },
      "properties": {
        "id": "ic_03a24acd365c",
        "source": "infocasas",
        "source_id": "194055355",
        "source_url": "https://www.infocasas.com.py/en-venta-amplio-departamento-de-3-dormitorios-en-edificio-casa-m/194055355",
        "scraped_at_utc": "2026-08-01T15:07:46.726370+00:00",
        "title": "EN VENTA AMPLIO DEPARTAMENTO DE 3 DORMITORIOS EN EDIFICIO CASA M",
        "address": null,
        "depto": null,
        "bedrooms": 3,
        "price_pyg": 6600000000,
        "price_usd": 880000,
        "area_ha": 0.0239,
        "$/ha": 36820083.68200836,
        "price_band_vs_anchors": null,
        "district": null,
        "departamento": null,
        "attrs": {}
      }
    },
    {
      "type": "Feature",
      "geometry": {
        "type": "Point",
        "coordinates": [
          -57.5855179,
          -25.2977248
        ]
      },
      "properties": {
        "id": "ic_1735f0ad123f",
        "source": "infocasas",
        "source_id": "193685944",
        "source_url": "https://www.infocasas.com.py/vendo-casa-en-esquina-barrio-recoleta/193685944",
        "scraped_at_utc": "2026-08-01T15:07:46.733921+00:00",
        "title": "VENDO CASA EN ESQUINA BARRIO RECOLETA",
        "address": null,
        "depto": null,
        "bedrooms": 1,
        "price_pyg": 2625000000,
        "price_usd": 350000,
        "area_ha": 0.0447,
        "$/ha": 7829977.628635347,
        "price_band_vs_anchors": null,
        "district": null,
        "departamento": null,
        "attrs": {}
      }
    },
    {
      "type": "Feature",
      "geometry": {
        "type": "Point",
        "coordinates": [
          -57.5659085,
          -25.2735573
        ]
      },
      "properties": {
        "id": "ic_869fa0d9617a",
        "source": "infocasas",
        "source_id": "193321572",
        "source_url": "https://www.infocasas.com.py/en-venta-monoambientes-en-mburucuya-entrega-diciembre-2027/193321572",
        "scraped_at_utc": "2026-08-01T15:07:49.741378+00:00",
        "title": "En Venta Monoambientes en Mburucuya - Entrega Diciembre 2027",
        "address": null,
        "depto": null,
        "bedrooms": 2,
        "price_pyg": 480000000,
        "price_usd": 64000,
        "area_ha": 0.0028,
        "$/ha": 22857142.85714286,
        "price_band_vs_anchors": null,
        "district": null,
        "departamento": null,
        "attrs": {}
      }
    },
    {
      "type": "Feature",
      "geometry": {
        "type": "Point",
        "coordinates": [
          -57.58094,
          -25.2977214
        ]
      },
      "properties": {
        "id": "ic_5d67f43d5b0b",
        "source": "infocasas",
        "source_id": "193461236",
        "source_url": "https://www.infocasas.com.py/exclusivo-departamento-de-2-dormitorios-en-pozo-inversion-inteligente-en-habitalis-jardin/193461236",
        "scraped_at_utc": "2026-08-01T15:07:52.947993+00:00",
        "title": "Exclusivo Departamento de 2 Dormitorios en Pozo: Inversi\u00f3n Inteligente en Habitalis Jard\u00edn.",
        "address": null,
        "depto": "Central",
        "bedrooms": 2,
        "price_pyg": 1085362500,
        "price_usd": 144715,
        "area_ha": 0.0046,
        "$/ha": 31459782.608695652,
        "price_band_vs_anchors": null,
        "district": null,
        "departamento": null,
        "attrs": {}
      }
    },
    {
      "type": "Feature",
      "geometry": {
        "type": "Point",
        "coordinates": [
          -57.5791739,
          -25.2627029
        ]
      },
      "properties": {
        "id": "ic_d047413e7d9f",
        "source": "infocasas",
        "source_id": "193600168",
        "source_url": "https://www.infocasas.com.py/oportunidad-penthouse-nuevo-en-mburucuya/193600168",
        "scraped_at_utc": "2026-08-01T15:07:52.959911+00:00",
        "title": "Oportunidad! Penthouse nuevo en Mburucuy\u00e1",
        "address": null,
        "depto": null,
        "bedrooms": 2,
        "price_pyg": 1402500000,
        "price_usd": 187000,
        "area_ha": 0.0124,
        "$/ha": 15080645.161290323,
        "price_band_vs_anchors": null,
        "district": null,
        "departamento": null,
        "attrs": {}
      }
    },
    {
      "type": "Feature",
      "geometry": {
        "type": "Point",
        "coordinates": [
          -57.585164927149904,
          -25.30087165475175
        ]
      },
      "properties": {
        "id": "ic_10c8933b8d94",
        "source": "infocasas",
        "source_id": "193608699",
        "source_url": "https://www.infocasas.com.py/vendo-monoambiente-en-barrio-recoleta-/193608699",
        "scraped_at_utc": "2026-08-01T15:07:52.971255+00:00",
        "title": "Vendo Monoambiente En Barrio Recoleta ",
        "address": null,
        "depto": null,
        "bedrooms": 2,
        "price_pyg": 442500000,
        "price_usd": 59000,
        "area_ha": null,
        "$/ha": null,
        "price_band_vs_anchors": null,
        "district": null,
        "departamento": null,
        "attrs": {}
      }
    },
    {
      "type": "Feature",
      "geometry": {
        "type": "Point",
        "coordinates": [
          -57.56204519260983,
          -25.299096144956952
        ]
      },
      "properties": {
        "id": "ic_3186b66458fa",
        "source": "infocasas",
        "source_id": "193557968",
        "source_url": "https://www.infocasas.com.py/terreno-360-m2-barrio-herrera-asuncion-/193557968",
        "scraped_at_utc": "2026-08-01T15:07:52.983339+00:00",
        "title": "Terreno 360 M2 - Barrio Herrera, Asunci\u00f3n ",
        "address": null,
        "depto": "Asunci\u00f3n",
        "bedrooms": null,
        "price_pyg": 950000000,
        "price_usd": 126666.66666666667,
        "area_ha": 0.036,
        "$/ha": 3518518.518518519,
        "price_band_vs_anchors": null,
        "district": null,
        "departamento": null,
        "attrs": {}
      }
    },
    {
      "type": "Feature",
      "geometry": {
        "type": "Point",
        "coordinates": [
          -57.6090835,
          -25.2994069
        ]
      },
      "properties": {
        "id": "ic_c0643036a9ca",
        "source": "infocasas",
        "source_id": "193694044",
        "source_url": "https://www.infocasas.com.py/amplia-casa-de-6-dormitorios-en-barrio-herrera-/193694044",
        "scraped_at_utc": "2026-08-01T15:07:52.990145+00:00",
        "title": "Amplia casa de 6 dormitorios en Barrio Herrera ",
        "address": null,
        "depto": "Alto Paran\u00e1",
        "bedrooms": 6,
        "price_pyg": 2625000000,
        "price_usd": 350000,
        "area_ha": 0.048,
        "$/ha": 7291666.666666667,
        "price_band_vs_anchors": null,
        "district": null,
        "departamento": null,
        "attrs": {}
      }
    },
    {
      "type": "Feature",
      "geometry": {
        "type": "Point",
        "coordinates": [
          -57.5551873,
          -25.2884981
        ]
      },
      "properties": {
        "id": "ic_8751c0557c6b",
        "source": "infocasas",
        "source_id": "193715156",
        "source_url": "https://www.infocasas.com.py/en-venta-propiedad-de-600-m2-en-zona-santa-teresa-paseo-la-galeria-/193715156",
        "scraped_at_utc": "2026-08-01T15:07:56.726546+00:00",
        "title": "EN VENTA - PROPIEDAD DE 600 M2 EN ZONA SANTA TERESA PASEO LA GALERIA ",
        "address": null,
        "depto": null,
        "bedrooms": null,
        "price_pyg": 5400000000,
        "price_usd": 720000,
        "area_ha": 0.06,
        "$/ha": 12000000.0,
        "price_band_vs_anchors": null,
        "district": null,
        "departamento": null,
        "attrs": {}
      }
    },
    {
      "type": "Feature",
      "geometry": {
        "type": "Point",
        "coordinates": [
          -57.5799842,
          -25.3067356
        ]
      },
      "properties": {
        "id": "ic_63b37714948b",
        "source": "infocasas",
        "source_id": "193916623",
        "source_url": "https://www.infocasas.com.py/exclusivo-departamento-en-el-edificio-laurus-lujo-y-confort-en-ubicacion-privilegiada/193916623",
        "scraped_at_utc": "2026-08-01T15:07:56.739217+00:00",
        "title": "Exclusivo Departamento en el Edificio Laurus: Lujo y Confort en Ubicaci\u00f3n Privilegiada",
        "address": null,
        "depto": null,
        "bedrooms": 1,
        "price_pyg": 712500000,
        "price_usd": 95000,
        "area_ha": 0.005843999999999999,
        "$/ha": 16255989.048596853,
        "price_band_vs_anchors": null,
        "district": null,
        "departamento": null,
        "attrs": {}
      }
    },
    {
      "type": "Feature",
      "geometry": {
        "type": "Point",
        "coordinates": [
          -57.57592599999999,
          -25.2637399
        ]
      },
      "properties": {
        "id": "ic_ad7c5c69ef7a",
        "source": "infocasas",
        "source_id": "193797891",
        "source_url": "https://www.infocasas.com.py/residencia-de-lujo-en-barrio-mariscal-estigarribia/193797891",
        "scraped_at_utc": "2026-08-01T15:07:59.769215+00:00",
        "title": "Residencia de Lujo en Barrio Mariscal Estigarribia",
        "address": null,
        "depto": "Boquer\u00f3n",
        "bedrooms": 2,
        "price_pyg": 12000000000,
        "price_usd": 1600000,
        "area_ha": 0.0001079,
        "$/ha": 14828544949.026878,
        "price_band_vs_anchors": null,
        "district": null,
        "departamento": null,
        "attrs": {}
      }
    },
    {
      "type": "Feature",
      "geometry": {
        "type": "Point",
        "coordinates": [
          -57.61358320000001,
          -25.2855725
        ]
      },
      "properties": {
        "id": "ic_a722c155bbc8",
        "source": "infocasas",
        "source_id": "193976477",
        "source_url": "https://www.infocasas.com.py/en-venta-edificio-boston-842/193976477",
        "scraped_at_utc": "2026-08-01T15:07:59.784552+00:00",
        "title": "EN VENTA EDIFICIO BOSTON 842",
        "address": null,
        "depto": null,
        "bedrooms": 2,
        "price_pyg": 2175000000,
        "price_usd": 290000,
        "area_ha": null,
        "$/ha": null,
        "price_band_vs_anchors": null,
        "district": null,
        "departamento": null,
        "attrs": {}
      }
    },
    {
      "type": "Feature",
      "geometry": {
        "type": "Point",
        "coordinates": [
          -57.6090835,
          -25.2994069
        ]
      },
      "properties": {
        "id": "ic_0739c736591c",
        "source": "infocasas",
        "source_id": "193131794",
        "source_url": "https://www.infocasas.com.py/vendo-departamentos-a-estrenar-en-barrio-herrera-de-asuncion-llave-en-mano-antes-de-tu-primera-cuota/193131794",
        "scraped_at_utc": "2026-08-01T15:07:59.796308+00:00",
        "title": "Vendo departamentos a estrenar en barrio Herrera de Asunci\u00f3n LLAVE EN MANO ANTES DE TU PRIMERA CUOTA",
        "address": null,
        "depto": "Asunci\u00f3n",
        "bedrooms": 1,
        "price_pyg": 603750000,
        "price_usd": 80500,
        "area_ha": 0.0038,
        "$/ha": 21184210.52631579,
        "price_band_vs_anchors": null,
        "district": null,
        "departamento": null,
        "attrs": {}
      }
    },
    {
      "type": "Feature",
      "geometry": {
        "type": "Point",
        "coordinates": [
          -57.56105146789496,
          -25.279948368147032
        ]
      },
      "properties": {
        "id": "ic_dbe0bca18682",
        "source": "infocasas",
        "source_id": "192917853",
        "source_url": "https://www.infocasas.com.py/departamento-en-venta-c-cochera-en-las-lomas-las-carmelitas/192917853",
        "scraped_at_utc": "2026-08-01T15:07:59.807416+00:00",
        "title": "Departamento en venta c/ cochera en Las Lomas (Las Carmelitas)",
        "address": null,
        "depto": "Central",
        "bedrooms": 1,
        "price_pyg": 786000000,
        "price_usd": 104800,
        "area_ha": 0.0092,
        "$/ha": 11391304.347826088,
        "price_band_vs_anchors": null,
        "district": null,
        "departamento": null,
        "attrs": {
          "garage": 16
        }
      }
    },
    {
      "type": "Feature",
      "geometry": {
        "type": "Point",
        "coordinates": [
          -57.57799563030459,
          -25.258664440258045
        ]
      },
      "properties": {
        "id": "ic_2d089fbd4fe1",
        "source": "infocasas",
        "source_id": "192922450",
        "source_url": "https://www.infocasas.com.py/terreno-sobre-avenida-sacramento/192922450",
        "scraped_at_utc": "2026-08-01T15:07:59.818121+00:00",
        "title": "TERRENO SOBRE AVENIDA SACRAMENTO",
        "address": null,
        "depto": null,
        "bedrooms": 2,
        "price_pyg": 1462500000,
        "price_usd": 195000,
        "area_ha": 0.0105,
        "$/ha": 18571428.57142857,
        "price_band_vs_anchors": null,
        "district": null,
        "departamento": null,
        "attrs": {}
      }
    },
    {
      "type": "Feature",
      "geometry": {
        "type": "Point",
        "coordinates": [
          -57.63256060485922,
          -25.293491675827454
        ]
      },
      "properties": {
        "id": "ic_ee986d15e30a",
        "source": "infocasas",
        "source_id": "192462288",
        "source_url": "https://www.infocasas.com.py/en-venta-departamento-en-el-centro-de-asuncion/192462288",
        "scraped_at_utc": "2026-08-01T15:07:59.829002+00:00",
        "title": "EN VENTA DEPARTAMENTO EN EL CENTRO DE ASUNCI\u00d3N",
        "address": null,
        "depto": "Asunci\u00f3n",
        "bedrooms": 2,
        "price_pyg": 562500000,
        "price_usd": 75000,
        "area_ha": 0.0073,
        "$/ha": 10273972.602739725,
        "price_band_vs_anchors": null,
        "district": null,
        "departamento": null,
        "attrs": {}
      }
    },
    {
      "type": "Feature",
      "geometry": {
        "type": "Point",
        "coordinates": [
          -57.63245266160961,
          -25.2816012
        ]
      },
      "properties": {
        "id": "ic_e4b951ca526f",
        "source": "infocasas",
        "source_id": "191207434",
        "source_url": "https://www.infocasas.com.py/casa-terreno-zona-identificaciones-/191207434",
        "scraped_at_utc": "2026-08-01T15:07:59.844294+00:00",
        "title": "CASA - TERRENO ZONA IDENTIFICACIONES ",
        "address": null,
        "depto": null,
        "bedrooms": null,
        "price_pyg": 5625000000,
        "price_usd": 750000,
        "area_ha": 0.00010800000000000001,
        "$/ha": 6944444444.444444,
        "price_band_vs_anchors": null,
        "district": null,
        "departamento": null,
        "attrs": {}
      }
    },
    {
      "type": "Feature",
      "geometry": {
        "type": "Point",
        "coordinates": [
          -57.6127732,
          -25.2806119
        ]
      },
      "properties": {
        "id": "ic_a4154dcc7db0",
        "source": "infocasas",
        "source_id": "191373751",
        "source_url": "https://www.infocasas.com.py/edificio-las-mercedes-33b/191373751",
        "scraped_at_utc": "2026-08-01T15:07:59.862759+00:00",
        "title": "Edificio Las Mercedes 33-B",
        "address": null,
        "depto": null,
        "bedrooms": 1,
        "price_pyg": 500000000,
        "price_usd": 66666.66666666667,
        "area_ha": null,
        "$/ha": null,
        "price_band_vs_anchors": null,
        "district": null,
        "departamento": null,
        "attrs": {}
      }
    },
    {
      "type": "Feature",
      "geometry": {
        "type": "Point",
        "coordinates": [
          -57.552484370010006,
          -25.276998793281777
        ]
      },
      "properties": {
        "id": "ic_6195ddbe37ff",
        "source": "infocasas",
        "source_id": "192376597",
        "source_url": "https://www.infocasas.com.py/en-venta-oficina-corporativa-sobre-la-avda-aviadores-del-chaco-/192376597",
        "scraped_at_utc": "2026-08-01T15:07:59.894673+00:00",
        "title": "En Venta Oficina Corporativa Sobre La Avda. Aviadores Del Chaco ",
        "address": null,
        "depto": "Boquer\u00f3n",
        "bedrooms": null,
        "price_pyg": 12000000000,
        "price_usd": 1600000,
        "area_ha": 0.032,
        "$/ha": 50000000.0,
        "price_band_vs_anchors": null,
        "district": null,
        "departamento": null,
        "attrs": {}
      }
    },
    {
      "type": "Feature",
      "geometry": {
        "type": "Point",
        "coordinates": [
          -57.571245,
          -25.2813914
        ]
      },
      "properties": {
        "id": "ic_912f1b6f3bb3",
        "source": "infocasas",
        "source_id": "193623560",
        "source_url": "https://www.infocasas.com.py/exclusivo-monoambiente-en-rascacielos-las-lomas/193623560",
        "scraped_at_utc": "2026-08-01T15:07:59.911279+00:00",
        "title": "Exclusivo monoambiente en Rascacielos | Las Lomas",
        "address": null,
        "depto": "Central",
        "bedrooms": 1,
        "price_pyg": 540750000,
        "price_usd": 72100,
        "area_ha": 0.05,
        "$/ha": 1442000.0,
        "price_band_vs_anchors": null,
        "district": null,
        "departamento": null,
        "attrs": {}
      }
    },
    {
      "type": "Feature",
      "geometry": {
        "type": "Point",
        "coordinates": [
          -57.5799744,
          -25.2588502
        ]
      },
      "properties": {
        "id": "ic_1ef99e410182",
        "source": "infocasas",
        "source_id": "194012556",
        "source_url": "https://www.infocasas.com.py/oportunidad-en-venta-duplex-de-3-suites-con-piscina/194012556",
        "scraped_at_utc": "2026-08-01T15:07:59.920988+00:00",
        "title": "OPORTUNIDAD EN VENTA - DUPLEX DE 3 SUITES CON PISCINA",
        "address": null,
        "depto": null,
        "bedrooms": 3,
        "price_pyg": 2227500000,
        "price_usd": 297000,
        "area_ha": 3.0,
        "$/ha": 99000.0,
        "price_band_vs_anchors": null,
        "district": null,
        "departamento": null,
        "attrs": {
          "garage": 2
        }
      }
    },
    {
      "type": "Feature",
      "geometry": {
        "type": "Point",
        "coordinates": [
          -57.5575674,
          -25.2965213
        ]
      },
      "properties": {
        "id": "ic_b72622339ff9",
        "source": "infocasas",
        "source_id": "193109166",
        "source_url": "https://www.infocasas.com.py/vendo-departamento-con-renta-ubicado-a-5-min-del-eje-corporativo-de-asuncion/193109166",
        "scraped_at_utc": "2026-08-01T15:07:59.928843+00:00",
        "title": "Vendo departamento con renta ubicado a 5 min del eje corporativo de Asunci\u00f3n",
        "address": null,
        "depto": "Asunci\u00f3n",
        "bedrooms": 2,
        "price_pyg": 937500000,
        "price_usd": 125000,
        "area_ha": 2.0,
        "$/ha": 62500.0,
        "price_band_vs_anchors": null,
        "district": null,
        "departamento": null,
        "attrs": {}
      }
    },
    {
      "type": "Feature",
      "geometry": {
        "type": "Point",
        "coordinates": [
          -57.5678642,
          -25.2633425
        ]
      },
      "properties": {
        "id": "ic_2e810567120c",
        "source": "infocasas",
        "source_id": "193561067",
        "source_url": "https://www.infocasas.com.py/una-de-las-residencias-mas-exclusivas-de-mburucuya/193561067",
        "scraped_at_utc": "2026-08-01T15:07:59.940985+00:00",
        "title": "Una De Las Residencias M\u00e1s Exclusivas De Mburucuy\u00e1",
        "address": null,
        "depto": null,
        "bedrooms": 5,
        "price_pyg": 17250000000,
        "price_usd": 2300000,
        "area_ha": 0.0003,
        "$/ha": 7666666666.666667,
        "price_band_vs_anchors": null,
        "district": null,
        "departamento": null,
        "attrs": {}
      }
    },
    {
      "type": "Feature",
      "geometry": {
        "type": "Point",
        "coordinates": [
          -57.56077766069211,
          -25.289499407306725
        ]
      },
      "properties": {
        "id": "ic_4e2e55cbb479",
        "source": "infocasas",
        "source_id": "193419357",
        "source_url": "https://www.infocasas.com.py/vendo-departamento-monoambiente/193419357",
        "scraped_at_utc": "2026-08-01T15:07:59.952295+00:00",
        "title": "VENDO DEPARTAMENTO MONOAMBIENTE",
        "address": null,
        "depto": null,
        "bedrooms": 1,
        "price_pyg": 314077500,
        "price_usd": 41877,
        "area_ha": 0.0027,
        "$/ha": 15510000.0,
        "price_band_vs_anchors": null,
        "district": null,
        "departamento": null,
        "attrs": {}
      }
    },
    {
      "type": "Feature",
      "geometry": {
        "type": "Point",
        "coordinates": [
          -57.5536246,
          -25.2927805
        ]
      },
      "properties": {
        "id": "ic_0d44146ea63c",
        "source": "infocasas",
        "source_id": "193620064",
        "source_url": "https://www.infocasas.com.py/vendo-amplia-casa-en-ycua-sati/193620064",
        "scraped_at_utc": "2026-08-01T15:07:59.960909+00:00",
        "title": "Vendo amplia casa en Ycua Sati",
        "address": null,
        "depto": null,
        "bedrooms": 3,
        "price_pyg": 2250000000,
        "price_usd": 300000,
        "area_ha": 0.0305,
        "$/ha": 9836065.573770491,
        "price_band_vs_anchors": null,
        "district": null,
        "departamento": null,
        "attrs": {}
      }
    },
    {
      "type": "Feature",
      "geometry": {
        "type": "Point",
        "coordinates": [
          -57.5827283,
          -25.3021631
        ]
      },
      "properties": {
        "id": "ic_5199c2045dec",
        "source": "infocasas",
        "source_id": "193543037",
        "source_url": "https://www.infocasas.com.py/nuevo-lanzamiento-departamento-venta-recoleta-asuncion-paraguay/193543037",
        "scraped_at_utc": "2026-08-01T15:08:07.525423+00:00",
        "title": "Nuevo Lanzamiento Departamento - Venta - Recoleta, Asunci\u00f3n, Paraguay",
        "address": null,
        "depto": "Asunci\u00f3n",
        "bedrooms": 1,
        "price_pyg": 517500000,
        "price_usd": 69000,
        "area_ha": 0.00364,
        "$/ha": 18956043.956043955,
        "price_band_vs_anchors": null,
        "district": null,
        "departamento": null,
        "attrs": {}
      }
    },
    {
      "type": "Feature",
      "geometry": {
        "type": "Point",
        "coordinates": [
          -57.5536246,
          -25.2927805
        ]
      },
      "properties": {
        "id": "ic_0d44146ea63c",
        "source": "infocasas",
        "source_id": "193620064",
        "source_url": "https://www.infocasas.com.py/vendo-amplia-casa-en-ycua-sati/193620064",
        "scraped_at_utc": "2026-08-01T15:08:07.534947+00:00",
        "title": "Vendo amplia casa en Ycua Sati",
        "address": null,
        "depto": null,
        "bedrooms": 3,
        "price_pyg": 2250000000,
        "price_usd": 300000,
        "area_ha": 0.0305,
        "$/ha": 9836065.573770491,
        "price_band_vs_anchors": null,
        "district": null,
        "departamento": null,
        "attrs": {}
      }
    },
    {
      "type": "Feature",
      "geometry": {
        "type": "Point",
        "coordinates": [
          -57.5673069,
          -25.2806085
        ]
      },
      "properties": {
        "id": "ic_002f751f3c32",
        "source": "infocasas",
        "source_id": "193682811",
        "source_url": "https://www.infocasas.com.py/penthouse-de-lujo-en-zona-shopping-del-sol-exclusividad-y-prestigio-sin-igual/193682811",
        "scraped_at_utc": "2026-08-01T15:08:07.546802+00:00",
        "title": "PENTHOUSE DE LUJO EN ZONA SHOPPING DEL SOL: EXCLUSIVIDAD Y PRESTIGIO SIN IGUAL",
        "address": null,
        "depto": null,
        "bedrooms": 4,
        "price_pyg": 8198475000,
        "price_usd": 1093130,
        "area_ha": 0.03272,
        "$/ha": 33408618.58190709,
        "price_band_vs_anchors": null,
        "district": null,
        "departamento": null,
        "attrs": {}
      }
    },
    {
      "type": "Feature",
      "geometry": {
        "type": "Point",
        "coordinates": [
          -57.56754629999999,
          -25.2791982
        ]
      },
      "properties": {
        "id": "ic_dcd739332d9c",
        "source": "infocasas",
        "source_id": "193117974",
        "source_url": "https://www.infocasas.com.py/ultimo-penhouse-en-ledix-un-edificio-boutique-de-solo-10-unidades/193117974",
        "scraped_at_utc": "2026-08-01T15:08:07.557936+00:00",
        "title": "\u00daltimo penhouse en Ledix: Un Edificio Boutique De Solo 10 Unidades!",
        "address": null,
        "depto": null,
        "bedrooms": 3,
        "price_pyg": 11625000000,
        "price_usd": 1550000,
        "area_ha": 0.0399,
        "$/ha": 38847117.79448622,
        "price_band_vs_anchors": null,
        "district": null,
        "departamento": null,
        "attrs": {}
      }
    },
    {
      "type": "Feature",
      "geometry": {
        "type": "Point",
        "coordinates": [
          -57.6136199,
          -25.2840041
        ]
      },
      "properties": {
        "id": "ic_06c41a59fb84",
        "source": "infocasas",
        "source_id": "193049543",
        "source_url": "https://www.infocasas.com.py/tu-nuevo-depto-con-financiacion-propia-edificio-la-mercedia/193049543",
        "scraped_at_utc": "2026-08-01T15:08:07.571840+00:00",
        "title": "Tu nuevo Depto. con financiaci\u00f3n propia - Edificio La Mercedia",
        "address": null,
        "depto": null,
        "bedrooms": 1,
        "price_pyg": 510000000,
        "price_usd": 68000,
        "area_ha": 0.00385,
        "$/ha": 17662337.66233766,
        "price_band_vs_anchors": null,
        "district": null,
        "departamento": null,
        "attrs": {}
      }
    },
    {
      "type": "Feature",
      "geometry": {
        "type": "Point",
        "coordinates": [
          -57.57592599999999,
          -25.2637399
        ]
      },
      "properties": {
        "id": "ic_f23925592bbc",
        "source": "infocasas",
        "source_id": "193510899",
        "source_url": "https://www.infocasas.com.py/departamento-venta-san-jorge-asuncion-paraguay/193510899",
        "scraped_at_utc": "2026-08-01T15:08:07.582387+00:00",
        "title": "Departamento - Venta - San Jorge, Asunci\u00f3n, Paraguay",
        "address": null,
        "depto": "Asunci\u00f3n",
        "bedrooms": 2,
        "price_pyg": 975000000,
        "price_usd": 130000,
        "area_ha": 0.0092,
        "$/ha": 14130434.782608695,
        "price_band_vs_anchors": null,
        "district": null,
        "departamento": null,
        "attrs": {}
      }
    },
    {
      "type": "Feature",
      "geometry": {
        "type": "Point",
        "coordinates": [
          -57.6092552,
          -25.2863685
        ]
      },
      "properties": {
        "id": "ic_7018c630da21",
        "source": "infocasas",
        "source_id": "193917832",
        "source_url": "https://www.infocasas.com.py/departamento-en-venta-de-1-dormitorio-amoblado-b-las-mercedes/193917832",
        "scraped_at_utc": "2026-08-01T15:08:07.594081+00:00",
        "title": "Departamento en venta de 1 dormitorio amoblado - B. Las Mercedes.",
        "address": null,
        "depto": null,
        "bedrooms": 1,
        "price_pyg": 787500000,
        "price_usd": 105000,
        "area_ha": null,
        "$/ha": null,
        "price_band_vs_anchors": null,
        "district": null,
        "departamento": null,
        "attrs": {}
      }
    },
    {
      "type": "Feature",
      "geometry": {
        "type": "Point",
        "coordinates": [
          -57.5499416,
          -25.2835705
        ]
      },
      "properties": {
        "id": "ic_1b4755b6252e",
        "source": "infocasas",
        "source_id": "193954273",
        "source_url": "https://www.infocasas.com.py/residencia-en-venta-barrio-san-jorge-zona-colegio-goethe/193954273",
        "scraped_at_utc": "2026-08-01T15:08:10.780385+00:00",
        "title": "Residencia en Venta - Barrio San Jorge - Zona Colegio Goethe",
        "address": null,
        "depto": null,
        "bedrooms": 3,
        "price_pyg": 2175000000,
        "price_usd": 290000,
        "area_ha": 0.0426,
        "$/ha": 6807511.737089202,
        "price_band_vs_anchors": null,
        "district": null,
        "departamento": null,
        "attrs": {}
      }
    },
    {
      "type": "Feature",
      "geometry": {
        "type": "Point",
        "coordinates": [
          -57.592879,
          -25.285601
        ]
      },
      "properties": {
        "id": "ic_a657760bd8e0",
        "source": "infocasas",
        "source_id": "193007690",
        "source_url": "https://www.infocasas.com.py/edificio-vidalta-dpto-1-dormitorio-en-pozo/193007690",
        "scraped_at_utc": "2026-08-01T15:08:14.082400+00:00",
        "title": "Edificio VIDALTA - Dpto 1 dormitorio en POZO",
        "address": null,
        "depto": null,
        "bedrooms": 1,
        "price_pyg": 626175000,
        "price_usd": 83490,
        "area_ha": null,
        "$/ha": null,
        "price_band_vs_anchors": null,
        "district": null,
        "departamento": null,
        "attrs": {}
      }
    },
    {
      "type": "Feature",
      "geometry": {
        "type": "Point",
        "coordinates": [
          -57.64684079999999,
          -25.289618
        ]
      },
      "properties": {
        "id": "ic_9bb33a99cd80",
        "source": "infocasas",
        "source_id": "194031325",
        "source_url": "https://www.infocasas.com.py/vendo-departamento-de-2-dormitorios-7938-m2-zona-colegio-xto-rey/194031325",
        "scraped_at_utc": "2026-08-01T15:08:16.886376+00:00",
        "title": "Vendo Departamento de 2 dormitorios 79.38 m2 zona Colegio Xto Rey.",
        "address": null,
        "depto": null,
        "bedrooms": 2,
        "price_pyg": 517500000,
        "price_usd": 69000,
        "area_ha": 0.007937999999999999,
        "$/ha": 8692365.83522298,
        "price_band_vs_anchors": null,
        "district": null,
        "departamento": null,
        "attrs": {
          "bedrooms": 79
        }
      }
    },
    {
      "type": "Feature",
      "geometry": {
        "type": "Point",
        "coordinates": [
          -57.586695,
          -25.297451
        ]
      },
      "properties": {
        "id": "ic_f230e63cdcb9",
        "source": "infocasas",
        "source_id": "194062014",
        "source_url": "https://www.infocasas.com.py/departamento-en-marquis-villa-morra-de-3-dormitorios/194062014",
        "scraped_at_utc": "2026-08-01T15:08:16.893567+00:00",
        "title": "Departamento en Marquis Villa Morra de 3 dormitorios",
        "address": null,
        "depto": null,
        "bedrooms": 3,
        "price_pyg": 1312500000,
        "price_usd": 175000,
        "area_ha": 1.0,
        "$/ha": 175000.0,
        "price_band_vs_anchors": null,
        "district": null,
        "departamento": null,
        "attrs": {}
      }
    },
    {
      "type": "Feature",
      "geometry": {
        "type": "Point",
        "coordinates": [
          -57.55720673338876,
          -25.296073536412873
        ]
      },
      "properties": {
        "id": "ic_8df68c1c5139",
        "source": "infocasas",
        "source_id": "192062080",
        "source_url": "https://www.infocasas.com.py/departamento-en-forvm-herrera-con-renta-activa/192062080",
        "scraped_at_utc": "2026-08-01T15:08:16.911136+00:00",
        "title": "Departamento En Forvm Herrera (con Renta Activa)",
        "address": null,
        "depto": "Alto Paran\u00e1",
        "bedrooms": 1,
        "price_pyg": 600000000,
        "price_usd": 80000,
        "area_ha": null,
        "$/ha": null,
        "price_band_vs_anchors": null,
        "district": null,
        "departamento": null,
        "attrs": {}
      }
    },
    {
      "type": "Feature",
      "geometry": {
        "type": "Point",
        "coordinates": [
          -57.5626921,
          -25.2685189
        ]
      },
      "properties": {
        "id": "ic_ca6b9f61694d",
        "source": "infocasas",
        "source_id": "192435474",
        "source_url": "https://www.infocasas.com.py/vendo-departamento-2-dormitorios-barrio-mburucuya/192435474",
        "scraped_at_utc": "2026-08-01T15:08:16.923979+00:00",
        "title": "VENDO DEPARTAMENTO 2 DORMITORIOS , BARRIO MBURUCUYA",
        "address": null,
        "depto": null,
        "bedrooms": 2,
        "price_pyg": 1012500000,
        "price_usd": 135000,
        "area_ha": 0.0075,
        "$/ha": 18000000.0,
        "price_band_vs_anchors": null,
        "district": null,
        "departamento": null,
        "attrs": {}
      }
    },
    {
      "type": "Feature",
      "geometry": {
        "type": "Point",
        "coordinates": [
          -57.56399148929632,
          -25.2808609239164
        ]
      },
      "properties": {
        "id": "ic_394e646de923",
        "source": "infocasas",
        "source_id": "191701434",
        "source_url": "https://www.infocasas.com.py/en-venta-amplio-departamentos-de-3-dormitorios-zona-shopping-del-sol/191701434",
        "scraped_at_utc": "2026-08-01T15:08:16.931502+00:00",
        "title": "En Venta Amplio Departamentos De 3 Dormitorios - Zona Shopping Del Sol",
        "address": null,
        "depto": null,
        "bedrooms": 3,
        "price_pyg": 6600000000,
        "price_usd": 880000,
        "area_ha": 2.0,
        "$/ha": 440000.0,
        "price_band_vs_anchors": null,
        "district": null,
        "departamento": null,
        "attrs": {}
      }
    },
    {
      "type": "Feature",
      "geometry": {
        "type": "Point",
        "coordinates": [
          -57.57425000000001,
          -25.26245999999999
        ]
      },
      "properties": {
        "id": "ic_dcc948314ba7",
        "source": "infocasas",
        "source_id": "192415746",
        "source_url": "https://www.infocasas.com.py/palacio-de-los-patos-exclusivo-departamento-en-venta-2-dormitorios-de-lujo-piso-13-r2-t2/192415746",
        "scraped_at_utc": "2026-08-01T15:08:16.939675+00:00",
        "title": "Palacio De Los Patos - Exclusivo Departamento en Venta, 2 Dormitorios de Lujo - Piso 13 R2 T2",
        "address": null,
        "depto": null,
        "bedrooms": 2,
        "price_pyg": 2512500000,
        "price_usd": 335000,
        "area_ha": 335000.0,
        "$/ha": 1.0,
        "price_band_vs_anchors": null,
        "district": null,
        "departamento": null,
        "attrs": {}
      }
    },
    {
      "type": "Feature",
      "geometry": {
        "type": "Point",
        "coordinates": [
          -57.57099518994201,
          -25.26499857205848
        ]
      },
      "properties": {
        "id": "ic_21e06ed29449",
        "source": "infocasas",
        "source_id": "192376614",
        "source_url": "https://www.infocasas.com.py/vendo-departamento-amoblado-3-dormitorios-sobre-santisima-trinidad/192376614",
        "scraped_at_utc": "2026-08-01T15:08:16.950477+00:00",
        "title": "Vendo Departamento Amoblado 3 Dormitorios Sobre Santisima Trinidad",
        "address": null,
        "depto": null,
        "bedrooms": 3,
        "price_pyg": 1575000000,
        "price_usd": 210000,
        "area_ha": null,
        "$/ha": null,
        "price_band_vs_anchors": null,
        "district": null,
        "departamento": null,
        "attrs": {}
      }
    },
    {
      "type": "Feature",
      "geometry": {
        "type": "Point",
        "coordinates": [
          -57.62243914708961,
          -25.321994194865383
        ]
      },
      "properties": {
        "id": "ic_01ea03cbb4b3",
        "source": "infocasas",
        "source_id": "191064327",
        "source_url": "https://www.infocasas.com.py/vendo-casa-de-2-plantas-con-piscina-en-barrio-san-vicente/191064327",
        "scraped_at_utc": "2026-08-01T15:08:16.958433+00:00",
        "title": "Vendo Casa De 2 Plantas Con Piscina En Barrio San Vicente",
        "address": null,
        "depto": null,
        "bedrooms": 4,
        "price_pyg": 1500000000,
        "price_usd": 200000,
        "area_ha": 0.036,
        "$/ha": 5555555.555555556,
        "price_band_vs_anchors": null,
        "district": null,
        "departamento": null,
        "attrs": {}
      }
    },
    {
      "type": "Feature",
      "geometry": {
        "type": "Point",
        "coordinates": [
          -57.56909589999999,
          -25.2774908
        ]
      },
      "properties": {
        "id": "ic_c79b9ec3d4aa",
        "source": "infocasas",
        "source_id": "193949805",
        "source_url": "https://www.infocasas.com.py/vendo-imponente-casa-en-barrio-carmelitas-4-habitaciones/193949805",
        "scraped_at_utc": "2026-08-01T15:08:16.970062+00:00",
        "title": "VENDO IMPONENTE CASA EN BARRIO CARMELITAS 4 HABITACIONES",
        "address": null,
        "depto": "Central",
        "bedrooms": 4,
        "price_pyg": 7500000000,
        "price_usd": 1000000,
        "area_ha": 0.0817,
        "$/ha": 12239902.080783354,
        "price_band_vs_anchors": null,
        "district": null,
        "departamento": null,
        "attrs": {}
      }
    },
    {
      "type": "Feature",
      "geometry": {
        "type": "Point",
        "coordinates": [
          -57.5508655,
          -25.2660066
        ]
      },
      "properties": {
        "id": "ic_cb4e5b95243f",
        "source": "infocasas",
        "source_id": "194010612",
        "source_url": "https://www.infocasas.com.py/hermosa-casa-de-4-dormitorios-en-barrio-mburucuya/194010612",
        "scraped_at_utc": "2026-08-01T15:08:16.979584+00:00",
        "title": "HERMOSA CASA DE 4 DORMITORIOS EN BARRIO MBURUCUYA",
        "address": null,
        "depto": null,
        "bedrooms": 4,
        "price_pyg": 5925000000,
        "price_usd": 790000,
        "area_ha": 0.06,
        "$/ha": 13166666.666666668,
        "price_band_vs_anchors": null,
        "district": null,
        "departamento": null,
        "attrs": {}
      }
    },
    {
      "type": "Feature",
      "geometry": {
        "type": "Point",
        "coordinates": [
          -57.56792507932717,
          -25.28641980644702
        ]
      },
      "properties": {
        "id": "ic_d8cd1303623a",
        "source": "infocasas",
        "source_id": "192749402",
        "source_url": "https://www.infocasas.com.py/increible-semipiso-de-2-suites-en-edificio-de-categoria/192749402",
        "scraped_at_utc": "2026-08-01T15:08:20.616462+00:00",
        "title": "Increible Semipiso De 2 Suites En Edificio De Categoria",
        "address": null,
        "depto": null,
        "bedrooms": 2,
        "price_pyg": 2805000000,
        "price_usd": 374000,
        "area_ha": 1.32e-05,
        "$/ha": 28333333333.333332,
        "price_band_vs_anchors": null,
        "district": null,
        "departamento": null,
        "attrs": {}
      }
    },
    {
      "type": "Feature",
      "geometry": {
        "type": "Point",
        "coordinates": [
          -57.5861098,
          -25.2913553
        ]
      },
      "properties": {
        "id": "ic_1e6f93ececd4",
        "source": "infocasas",
        "source_id": "192788208",
        "source_url": "https://www.infocasas.com.py/esquina-de-1025-m2-sobre-avda-mcal-lopez-villa-morra-cod-1347/192788208",
        "scraped_at_utc": "2026-08-01T15:08:20.630503+00:00",
        "title": "Esquina De 1.025 M2 Sobre Avda. Mcal. L\u00f3pez - Villa Morra (C\u00f3D. 1347)",
        "address": null,
        "depto": null,
        "bedrooms": null,
        "price_pyg": 9637500000,
        "price_usd": 1285000,
        "area_ha": 0.0001,
        "$/ha": 12850000000.0,
        "price_band_vs_anchors": null,
        "district": null,
        "departamento": null,
        "attrs": {}
      }
    },
    {
      "type": "Feature",
      "geometry": {
        "type": "Point",
        "coordinates": [
          -57.56222901865841,
          -25.278986913903843
        ]
      },
      "properties": {
        "id": "ic_99c57f73cfae",
        "source": "infocasas",
        "source_id": "193105789",
        "source_url": "https://www.infocasas.com.py/venta-departamento-a-estrenar-en-edificio-petra-tower/193105789",
        "scraped_at_utc": "2026-08-01T15:08:23.853023+00:00",
        "title": "Venta - Departamento A Estrenar En Edificio Petra Tower",
        "address": null,
        "depto": null,
        "bedrooms": 2,
        "price_pyg": 1350000000,
        "price_usd": 180000,
        "area_ha": 0.00965,
        "$/ha": 18652849.74093264,
        "price_band_vs_anchors": null,
        "district": null,
        "departamento": null,
        "attrs": {}
      }
    },
    {
      "type": "Feature",
      "geometry": {
        "type": "Point",
        "coordinates": [
          -57.5796867,
          -25.293424
        ]
      },
      "properties": {
        "id": "ic_51e891aa8637",
        "source": "infocasas",
        "source_id": "193286273",
        "source_url": "https://www.infocasas.com.py/first-element-3-habitaciones-en-villa-morra/193286273",
        "scraped_at_utc": "2026-08-01T15:08:26.828003+00:00",
        "title": "First Element 3 habitaciones en Villa Morra",
        "address": null,
        "depto": "Central",
        "bedrooms": 3,
        "price_pyg": 1297500000,
        "price_usd": 173000,
        "area_ha": 3.0,
        "$/ha": 57666.666666666664,
        "price_band_vs_anchors": null,
        "district": null,
        "departamento": null,
        "attrs": {}
      }
    },
    {
      "type": "Feature",
      "geometry": {
        "type": "Point",
        "coordinates": [
          -57.56909589999999,
          -25.2774908
        ]
      },
      "properties": {
        "id": "ic_6c1df7eb9399",
        "source": "infocasas",
        "source_id": "193397186",
        "source_url": "https://www.infocasas.com.py/departamento-a-estrenar-financiado/193397186",
        "scraped_at_utc": "2026-08-01T15:08:26.841864+00:00",
        "title": "Departamento a estrenar Financiado",
        "address": null,
        "depto": null,
        "bedrooms": 1,
        "price_pyg": 756000000,
        "price_usd": 100800,
        "area_ha": null,
        "$/ha": null,
        "price_band_vs_anchors": null,
        "district": null,
        "departamento": null,
        "attrs": {}
      }
    },
    {
      "type": "Feature",
      "geometry": {
        "type": "Point",
        "coordinates": [
          -57.5756614,
          -25.2867911
        ]
      },
      "properties": {
        "id": "ic_f6da9001a7c6",
        "source": "infocasas",
        "source_id": "193929354",
        "source_url": "https://www.infocasas.com.py/en-venta-departamento-boutique-en-the-station-morra-oportunidad-de-inversion-con-ingresos-demostrables/193929354",
        "scraped_at_utc": "2026-08-01T15:08:26.854368+00:00",
        "title": "EN VENTA | DEPARTAMENTO BOUTIQUE EN THE STATION MORRA - Oportunidad de Inversi\u00f3n con Ingresos Demostrables",
        "address": null,
        "depto": null,
        "bedrooms": 1,
        "price_pyg": 862500000,
        "price_usd": 115000,
        "area_ha": 0.0041,
        "$/ha": 28048780.487804875,
        "price_band_vs_anchors": null,
        "district": null,
        "departamento": null,
        "attrs": {}
      }
    },
    {
      "type": "Feature",
      "geometry": {
        "type": "Point",
        "coordinates": [
          -57.56909589999999,
          -25.2774908
        ]
      },
      "properties": {
        "id": "ic_abb0b2dea056",
        "source": "infocasas",
        "source_id": "193999878",
        "source_url": "https://www.infocasas.com.py/-vendo-departamento-de-2-habitaciones-en-suite-edificio-albor/193999878",
        "scraped_at_utc": "2026-08-01T15:08:26.861043+00:00",
        "title": "  VENDO DEPARTAMENTO DE 2 HABITACIONES EN SUITE - EDIFICIO ALBOR",
        "address": null,
        "depto": "Central",
        "bedrooms": 2,
        "price_pyg": 1626412500,
        "price_usd": 216855,
        "area_ha": 2.0,
        "$/ha": 108427.5,
        "price_band_vs_anchors": null,
        "district": null,
        "departamento": null,
        "attrs": {}
      }
    },
    {
      "type": "Feature",
      "geometry": {
        "type": "Point",
        "coordinates": [
          -57.5811543,
          -25.2978395
        ]
      },
      "properties": {
        "id": "ic_17f3841e65d9",
        "source": "infocasas",
        "source_id": "193891034",
        "source_url": "https://www.infocasas.com.py/habitalis-jardin-villa-morra-departamento-de-2-dormitorios/193891034",
        "scraped_at_utc": "2026-08-01T15:08:26.869913+00:00",
        "title": "Habitalis Jard\u00edn, Villa Morra -  Departamento de 2 dormitorios",
        "address": null,
        "depto": "Central",
        "bedrooms": 2,
        "price_pyg": 1129500000,
        "price_usd": 150600,
        "area_ha": 0.0054,
        "$/ha": 27888888.888888888,
        "price_band_vs_anchors": null,
        "district": null,
        "departamento": null,
        "attrs": {}
      }
    },
    {
      "type": "Feature",
      "geometry": {
        "type": "Point",
        "coordinates": [
          -57.5558856,
          -25.2935715
        ]
      },
      "properties": {
        "id": "ic_093f1e096c2f",
        "source": "infocasas",
        "source_id": "193720201",
        "source_url": "https://www.infocasas.com.py/departamento-en-venta-en-barrio-herrera-/193720201",
        "scraped_at_utc": "2026-08-01T15:08:26.879906+00:00",
        "title": "Departamento en Venta en Barrio Herrera ",
        "address": null,
        "depto": "Alto Paran\u00e1",
        "bedrooms": 2,
        "price_pyg": 825000000,
        "price_usd": 110000,
        "area_ha": 0.0072,
        "$/ha": 15277777.777777778,
        "price_band_vs_anchors": null,
        "district": null,
        "departamento": null,
        "attrs": {}
      }
    },
    {
      "type": "Feature",
      "geometry": {
        "type": "Point",
        "coordinates": [
          -57.56162583050716,
          -25.279606553545264
        ]
      },
      "properties": {
        "id": "ic_18f37f4d5406",
        "source": "infocasas",
        "source_id": "193710178",
        "source_url": "https://www.infocasas.com.py/en-venta-departamento-2-habitaciones-a-estrenar-en-petra-tower/193710178",
        "scraped_at_utc": "2026-08-01T15:08:29.628725+00:00",
        "title": "En Venta Departamento 2 Habitaciones A Estrenar, En Petra Tower",
        "address": null,
        "depto": "Central",
        "bedrooms": 2,
        "price_pyg": 1275000000,
        "price_usd": 170000,
        "area_ha": 2.0,
        "$/ha": 85000.0,
        "price_band_vs_anchors": null,
        "district": null,
        "departamento": null,
        "attrs": {}
      }
    },
    {
      "type": "Feature",
      "geometry": {
        "type": "Point",
        "coordinates": [
          -57.6174118,
          -25.3126545
        ]
      },
      "properties": {
        "id": "ic_331440c211c2",
        "source": "infocasas",
        "source_id": "193671370",
        "source_url": "https://www.infocasas.com.py/edificio-de-3-niveles-sobre-avenida-gral-santos/193671370",
        "scraped_at_utc": "2026-08-01T15:08:32.819509+00:00",
        "title": "EDIFICIO DE 3 NIVELES SOBRE AVENIDA GRAL. SANTOS",
        "address": null,
        "depto": null,
        "bedrooms": 2,
        "price_pyg": 1425000000,
        "price_usd": 190000,
        "area_ha": 0.0344,
        "$/ha": 5523255.813953488,
        "price_band_vs_anchors": null,
        "district": null,
        "departamento": null,
        "attrs": {}
      }
    },
    {
      "type": "Feature",
      "geometry": {
        "type": "Point",
        "coordinates": [
          -57.6122765,
          -25.277326
        ]
      },
      "properties": {
        "id": "ic_476dae780226",
        "source": "infocasas",
        "source_id": "193607751",
        "source_url": "https://www.infocasas.com.py/vendo-departamento-de-dos-dormitorios-en-el-barrio-las-mercedes-en-asuncion/193607751",
        "scraped_at_utc": "2026-08-01T15:08:32.828905+00:00",
        "title": "Vendo Departamento De Dos Dormitorios En El Barrio Las Mercedes En Asuncion",
        "address": null,
        "depto": "Asunci\u00f3n",
        "bedrooms": 1,
        "price_pyg": 945000000,
        "price_usd": 126000,
        "area_ha": null,
        "$/ha": null,
        "price_band_vs_anchors": null,
        "district": null,
        "departamento": null,
        "attrs": {}
      }
    },
    {
      "type": "Feature",
      "geometry": {
        "type": "Point",
        "coordinates": [
          -57.5696277,
          -25.2939367
        ]
      },
      "properties": {
        "id": "ic_aafa03fbddf1",
        "source": "infocasas",
        "source_id": "193848346",
        "source_url": "https://www.infocasas.com.py/vendo-casa-en-barrio-san-cristobal/193848346",
        "scraped_at_utc": "2026-08-01T15:08:32.838541+00:00",
        "title": "Vendo casa en barrio  san Crist\u00f3bal",
        "address": null,
        "depto": null,
        "bedrooms": 4,
        "price_pyg": 3375000000,
        "price_usd": 450000,
        "area_ha": 0.0357,
        "$/ha": 12605042.016806722,
        "price_band_vs_anchors": null,
        "district": null,
        "departamento": null,
        "attrs": {}
      }
    },
    {
      "type": "Feature",
      "geometry": {
        "type": "Point",
        "coordinates": [
          -57.5505096,
          -25.2859265
        ]
      },
      "properties": {
        "id": "ic_dfc0dbd16172",
        "source": "infocasas",
        "source_id": "193515242",
        "source_url": "https://www.infocasas.com.py/exclusivo-departamento-en-venta-en-alzara-plaza-terraza-panoramica-gimnasio-y-vistas-impactantes/193515242",
        "scraped_at_utc": "2026-08-01T15:08:32.853119+00:00",
        "title": "Exclusivo Departamento en Venta en Alzara Plaza: Terraza Panor\u00e1mica, Gimnasio y Vistas Impactantes",
        "address": null,
        "depto": null,
        "bedrooms": null,
        "price_pyg": 975000000,
        "price_usd": 130000,
        "area_ha": 0.0052,
        "$/ha": 25000000.0,
        "price_band_vs_anchors": null,
        "district": null,
        "departamento": null,
        "attrs": {}
      }
    },
    {
      "type": "Feature",
      "geometry": {
        "type": "Point",
        "coordinates": [
          -57.569378614425666,
          -25.282500714964996
        ]
      },
      "properties": {
        "id": "ic_2be9a2926d5c",
        "source": "infocasas",
        "source_id": "193562101",
        "source_url": "https://www.infocasas.com.py/vendo-departamento-de-1-dormitorio-en-edificio-acro-home-43/193562101",
        "scraped_at_utc": "2026-08-01T15:08:32.863437+00:00",
        "title": "Vendo Departamento de 1 Dormitorio en Edificio Acro Home 43",
        "address": null,
        "depto": null,
        "bedrooms": 1,
        "price_pyg": 962977500,
        "price_usd": 128397,
        "area_ha": 0.00425,
        "$/ha": 30211058.82352941,
        "price_band_vs_anchors": null,
        "district": null,
        "departamento": null,
        "attrs": {}
      }
    },
    {
      "type": "Feature",
      "geometry": {
        "type": "Point",
        "coordinates": [
          -57.561299,
          -25.293731
        ]
      },
      "properties": {
        "id": "ic_f004992adc42",
        "source": "infocasas",
        "source_id": "193811842",
        "source_url": "https://www.infocasas.com.py/imperdible-oferta-863-m2-sucre-casi-denis-roa-barrio-san-cristobal/193811842",
        "scraped_at_utc": "2026-08-01T15:08:36.114126+00:00",
        "title": "Imperdible oferta, 863 m2, Sucre casi Denis Roa, Barrio San Cristobal",
        "address": null,
        "depto": null,
        "bedrooms": 2,
        "price_pyg": 2325000000,
        "price_usd": 310000,
        "area_ha": 0.0863,
        "$/ha": 3592120.5098493625,
        "price_band_vs_anchors": null,
        "district": null,
        "departamento": null,
        "attrs": {}
      }
    },
    {
      "type": "Feature",
      "geometry": {
        "type": "Point",
        "coordinates": [
          -57.5662699,
          -25.2678523
        ]
      },
      "properties": {
        "id": "ic_909ee15490ef",
        "source": "infocasas",
        "source_id": "193764539",
        "source_url": "https://www.infocasas.com.py/exclusiva-casa-en-venta-a-estrenar-en-mburucuya-asuncion/193764539",
        "scraped_at_utc": "2026-08-01T15:08:36.129298+00:00",
        "title": "Exclusiva Casa en Venta a Estrenar en Mburucuya, Asunci\u00f3n",
        "address": null,
        "depto": "Asunci\u00f3n",
        "bedrooms": 5,
        "price_pyg": 5175000000,
        "price_usd": 690000,
        "area_ha": 0.039,
        "$/ha": 17692307.692307692,
        "price_band_vs_anchors": null,
        "district": null,
        "departamento": null,
        "attrs": {}
      }
    }
  ]
}